{"type":"FeatureCollection","features":[{"type":"Feature","geometry":{"type":"Point","coordinates":[-77.447777,38.949931]},"properties":{"Code":"IAD","Name":"Washington Dulles International Airport"}},{"type":"Feature","geometry":{"type":"Point","coordinates":[-77.039652,38.851272]},"properties":{"Code":"DCA","Name":"Ronald Reagan Washington National Airport"}},{"type":"Feature","geometry":{"type":"Point","coordinates":[-77.326627,37.50656]},"properties":{"Code":"RIC","Name":"Richmond International Airport"}},{"type":"Feature","geometry":{"type":"Point","coordinates":[-78.898916,38.262243]},"properties":{"Code":"SHD","Name":"Shenandoah Valley Regional Airport"}},{"type":"Feature","geometry":{"type":"Point","coordinates":[-78.45058,38.139552]},"properties":{"Code":"CHO","Name":"Charlottesville Albemarle Airport"}},{"type":"Feature","geometry":{"type":"Point","coordinates":[-80.942459,35.218207]},"properties":{"Code":"CLT","Name":"Charlotte Douglas International Airport"}},{"type":"Feature","geometry":{"type":"Point","coordinates":[-75.238409,39.872594]},"properties":{"Code":"PHL","Name":"Philadelphia International Airport"}},{"type":"Feature","geometry":{"type":"Point","coordinates":[-74.175224,40.690661]},"properties":{"Code":"EWR","Name":"Newark Liberty International Airport"}},{"type":"Feature","geometry":{"type":"Point","coordinates":[-71.018157,42.366662]},"properties":{"Code":"BOS","Name":"Logan International Airport"}},{"type":"Feature","geometry":{"type":"Point","coordinates":[-69.796486,44.318751]},"properties":{"Name":"Augusta State Airport","Code":"AUG"}},{"type":"Feature","geometry":{"type":"Point","coordinates":[-83.353443,42.215932]},"properties":{"Code":"DTW","Name":"Detroit Metropolitan Airport"}},{"type":"Feature","geometry":{"type":"Point","coordinates":[-87.901955,41.977869]},"properties":{"Code":"ORD","Name":"O'Hare International Airport"}},{"type":"Feature","geometry":{"type":"Point","coordinates":[-97.040863,32.89775]},"properties":{"Code":"DFW","Name":"Dallas Fort Worth International Airport"}},{"type":"Feature","geometry":{"type":"Point","coordinates":[-95.339527,29.9904]},"properties":{"Code":"IAH","Name":"George Bush Intercontinental Airport"}},{"type":"Feature","geometry":{"type":"Point","coordinates":[-104.674301,39.855729]},"properties":{"Code":"DEN","Name":"Denver International Airport"}},{"type":"Feature","geometry":{"type":"Point","coordinates":[-104.699707,38.796641]},"properties":{"Code":"COS","Name":"City of Colorado Springs Municipal Airport"}},{"type":"Feature","geometry":{"type":"Point","coordinates":[-111.981926,40.78743]},"properties":{"Code":"SLC","Name":"Salt Lake City International Airport"}},{"type":"Feature","geometry":{"type":"Point","coordinates":[-122.594204,45.588936]},"properties":{"Code":"PDX","Name":"Portland International Airport"}},{"type":"Feature","geometry":{"type":"Point","coordinates":[-122.30401,47.44353]},"properties":{"Code":"SEA","Name":"Seattle Tacoma International Airport"}},{"type":"Feature","geometry":{"type":"Point","coordinates":[-123.178711,49.195167]},"properties":{"Code":"YVR","Name":"Vancouver International Airport"}},{"type":"Feature","geometry":{"type":"Point","coordinates":[-114.014482,51.124374]},"properties":{"Code":"YYC","Name":"Calgary International Airport"}},{"type":"Feature","geometry":{"type":"Point","coordinates":[-113.588676,53.307339]},"properties":{"Code":"YEG","Name":"Edmonton International Airport"}},{"type":"Feature","geometry":{"type":"Point","coordinates":[-147.865162,64.816744]},"properties":{"Code":"FAI","Name":"Fairbanks International Airport"}},{"type":"Feature","geometry":{"type":"Point","coordinates":[-150.195079,67.25612]},"properties":{"Code":"CXF","Name":"Coldfoot Airport"}},{"type":"Feature","geometry":{"type":"Point","coordinates":[-151.742821,68.134121]},"properties":{"Code":"AKP","Name":"Anaktuvuk Pass Airport"}},{"type":"Feature","geometry":{"type":"Point","coordinates":[-122.213116,37.712955]},"properties":{"Code":"OAK","Name":"Metropolitan Oakland International Airport"}},{"type":"Feature","geometry":{"type":"Point","coordinates":[-118.4091,33.943075]},"properties":{"Code":"LAX","Name":"Los Angeles International Airport"}},{"type":"Feature","geometry":{"type":"Point","coordinates":[-117.866521,33.677997]},"properties":{"Code":"SNA","Name":"John Wayne Airport"}},{"type":"Feature","geometry":{"type":"Point","coordinates":[-90.362206,38.746653]},"properties":{"Code":"STL","Name":"St. Louis Lambert International Airport"}},{"type":"Feature","geometry":{"type":"Point","coordinates":[-0.458851,51.469622]},"properties":{"Code":"LHR","Name":"London Heathrow Airport"}},{"type":"Feature","geometry":{"type":"Point","coordinates":[13.293114,52.557725]},"properties":{"Code":"TXL","Name":"Berlin Brandenburg Airport"}},{"type":"Feature","geometry":{"type":"Point","coordinates":[16.562748,48.119981]},"properties":{"Code":"VIE","Name":"Vienna International Airport"}},{"type":"Feature","geometry":{"type":"Point","coordinates":[34.880476,32.005965]},"properties":{"Code":"TLV","Name":"Ben Gurion Airport"}},{"type":"Feature","geometry":{"type":"Point","coordinates":[-112.007589,33.435309]},"properties":{"Code":"PHX","Name":"Phoenix Sky Harbor International Airport"}},{"type":"Feature","geometry":{"type":"Point","coordinates":[23.411179,42.69682]},"properties":{"Code":"SOF","Name":"Sofia International Airport"}},{"type":"Feature","geometry":{"type":"Point","coordinates":[-109.808178,42.797038]},"properties":{"Code":"PWY","Name":"Ralph Wenz Field"}},{"type":"Feature","geometry":{"type":"Point","coordinates":[-105.111694,39.909539]},"properties":{"Code":"BJC","Name":"Rocky Mountain Metropolitan Airport"}},{"type":"Feature","geometry":{"type":"Point","coordinates":[-104.850383,39.573575]},"properties":{"Code":"APA","Name":"Centennial Airport"}},{"type":"Feature","geometry":{"type":"Point","coordinates":[-73.785553,40.644699]},"properties":{"Code":"JFK","Name":"John F Kennedy International Airport"}},{"type":"Feature","geometry":{"type":"Point","coordinates":[-73.87001,40.775342]},"properties":{"Code":"LGA","Name":"LaGuardia Airport"}},{"type":"Feature","geometry":{"type":"Point","coordinates":[-106.610298,35.045738]},"properties":{"Code":"ABQ","Name":"Albuquerque International Sunport"}},{"type":"Feature","geometry":{"type":"Point","coordinates":[-111.670017,35.140476]},"properties":{"Code":"FLG","Name":"Flagstaff Pulliam Airport"}},{"type":"Feature","geometry":{"type":"Point","coordinates":[-113.510056,37.034488]},"properties":{"Code":"SGU","Name":"St. George Regional Airport"}},{"type":"Feature","geometry":{"type":"Point","coordinates":[-87.751923,41.785521]},"properties":{"Code":"MDW","Name":"Chicago Midway International Airport"}},{"type":"Feature","geometry":{"type":"Point","coordinates":[-94.716525,39.296845]},"properties":{"Code":"MCI","Name":"Kansas City International Airport"}},{"type":"Feature","geometry":{"type":"Point","coordinates":[-76.669807,39.180909]},"properties":{"Code":"BWI","Name":"Baltimore/Washington International Airport"}},{"type":"Feature","geometry":{"type":"Point","coordinates":[-156.430036,20.900108]},"properties":{"Code":"OGG","Name":"Kahului Airport"}},{"type":"Feature","geometry":{"type":"Point","coordinates":[-121.927047,37.365806]},"properties":{"Code":"SJC","Name":"Norman Y Mineta San Jose International Airport"}},{"type":"Feature","geometry":{"type":"Point","coordinates":[-117.19099,32.732419]},"properties":{"Code":"SAN","Name":"San Diego International Airport"}},{"type":"Feature","geometry":{"type":"Point","coordinates":[-86.678292,36.125956]},"properties":{"Code":"BNA","Name":"Nashville International Airport"}},{"type":"Feature","geometry":{"type":"Point","coordinates":[-87.900637,42.113694]},"properties":{"Code":"PWK","Name":"Chicago Executive Airport"}},{"type":"Feature","geometry":{"type":"Point","coordinates":[-88.601222,42.63324]},"properties":{"Code":"C59","Name":"Lake Lawn Airport"}},{"type":"Feature","geometry":{"type":"Point","coordinates":[-116.507457,33.829785]},"properties":{"Code":"PSP","Name":"Palm Springs International Airport"}},{"type":"Feature","geometry":{"type":"Point","coordinates":[-82.534488,27.979576]},"properties":{"Code":"TPA","Name":"Tampa International Airport"}},{"type":"Feature","properties":{"Code":"HOU","Name":"William P. Hobby Airport"},"geometry":{"type":"Point","coordinates":[-95.276785,29.644313]}}]}