{"type":"FeatureCollection","features":[{"type":"Feature","geometry":{"type":"Point","coordinates":[-78.86810302734375,38.44390909175746]},"properties":{"NAME":"Harrisonburg, VA","COUNTRY":"USA","TYPE":"City"}},{"type":"Feature","geometry":{"type":"Point","coordinates":[-79.32815551757812,38.64315421306983]},"properties":{"NAME":"Franklin, WV","COUNTRY":"USA","TYPE":"City"}},{"type":"Feature","geometry":{"type":"Point","coordinates":[-78.79600524902344,38.61418790695693]},"properties":{"NAME":"Broadway, VA","COUNTRY":"USA","TYPE":"Town"}},{"type":"Feature","geometry":{"type":"Point","coordinates":[-78.453369140625,38.666211605156704]},"properties":{"NAME":"Luray, VA","COUNTRY":"USA","TYPE":"Town"}},{"type":"Feature","geometry":{"type":"Point","coordinates":[-78.189697265625,38.91561302513129]},"properties":{"NAME":"Front Royal, VA","COUNTRY":"USA","TYPE":"City"}},{"type":"Feature","geometry":{"type":"Point","coordinates":[-79.573974609375,38.41271038284709]},"properties":{"NAME":"Monterey, VA","COUNTRY":"USA","TYPE":"Town"}},{"type":"Feature","geometry":{"type":"Point","coordinates":[-79.49037551879883,38.334923959718616]},"properties":{"NAME":"McDowell, VA","COUNTRY":"USA","TYPE":"Town"}},{"type":"Feature","geometry":{"type":"Point","coordinates":[-79.06997680664062,38.14967752360809]},"properties":{"NAME":"Staunton, VA","COUNTRY":"USA","TYPE":"City"}},{"type":"Feature","geometry":{"type":"Point","coordinates":[-78.87702941894531,38.06647354576796]},"properties":{"NAME":"Waynesboro, VA","COUNTRY":"USA","TYPE":"City"}},{"type":"Feature","geometry":{"type":"Point","coordinates":[-78.486328125,38.027540481011]},"properties":{"NAME":"Charlottesville, VA","COUNTRY":"USA","TYPE":"City"}},{"type":"Feature","geometry":{"type":"Point","coordinates":[-78.10455322265625,38.24680876017446]},"properties":{"NAME":"Orange, VA","COUNTRY":"USA","TYPE":"Town"}},{"type":"Feature","geometry":{"type":"Point","coordinates":[-78.25698852539062,38.38418943358851]},"properties":{"NAME":"Madison, VA","COUNTRY":"USA","TYPE":"Town"}},{"type":"Feature","geometry":{"type":"Point","coordinates":[-78.45474243164062,38.47509432050245]},"properties":{"NAME":"Shenandoah National Park, VA","COUNTRY":"USA","TYPE":"National Park"}},{"type":"Feature","geometry":{"type":"Point","coordinates":[-77.46116638183594,38.306102934215616]},"properties":{"NAME":"Fredericksburg, VA","COUNTRY":"USA","TYPE":"City"}},{"type":"Feature","geometry":{"type":"Point","coordinates":[-77.02789306640625,38.89530825492018]},"properties":{"NAME":"Washington DC, District of Columbia","COUNTRY":"USA","TYPE":"City"}},{"type":"Feature","geometry":{"type":"Point","coordinates":[-76.92901611328125,38.98076276501633]},"properties":{"NAME":"College Park, MD","COUNTRY":"USA","TYPE":"City"}},{"type":"Feature","geometry":{"type":"Point","coordinates":[-77.3052978515625,38.84826438869913]},"properties":{"NAME":"Fairfax, VA","COUNTRY":"USA","TYPE":"City"}},{"type":"Feature","geometry":{"type":"Point","coordinates":[-77.73513793945312,38.971154274048345]},"properties":{"NAME":"Middleburg, VA","COUNTRY":"USA","TYPE":"City"}},{"type":"Feature","geometry":{"type":"Point","coordinates":[-78.16635131835938,39.18862643257856]},"properties":{"NAME":"Winchester, VA","COUNTRY":"USA","TYPE":"City"}},{"type":"Feature","geometry":{"type":"Point","coordinates":[-79.03701782226562,38.710160941206645]},"properties":{"NAME":"George Washington National Forest, VA","COUNTRY":"USA","TYPE":"National Forest"}},{"type":"Feature","geometry":{"type":"Point","coordinates":[-77.16934204101562,38.886757140695906]},"properties":{"NAME":"Falls Church, VA","COUNTRY":"USA","TYPE":"City"}},{"type":"Feature","geometry":{"type":"Point","coordinates":[-77.35954284667969,38.96047664397741]},"properties":{"NAME":"Reston, VA","COUNTRY":"USA","TYPE":"City"}},{"type":"Feature","geometry":{"type":"Point","coordinates":[-75.6024169921875,38.371808917147554]},"properties":{"NAME":"Salisbury, MD","COUNTRY":"USA","TYPE":"City"}},{"type":"Feature","geometry":{"type":"Point","coordinates":[-75.28656005859375,37.974514992024616]},"properties":{"NAME":"Assateague Island National Seashore, VA","COUNTRY":"USA","TYPE":"National Park"}},{"type":"Feature","geometry":{"type":"Point","coordinates":[-75.37582397460938,37.938782346134396]},"properties":{"NAME":"Chincoteague, VA","COUNTRY":"USA","TYPE":"Town"}},{"type":"Feature","geometry":{"type":"Point","coordinates":[-75.99037170410156,37.82849729680382]},"properties":{"NAME":"Tangier, VA","COUNTRY":"USA","TYPE":"Town"}},{"type":"Feature","geometry":{"type":"Point","coordinates":[-76.02298736572266,37.96747811844137]},"properties":{"NAME":"Tylerton, VA","COUNTRY":"USA","TYPE":"Town"}},{"type":"Feature","geometry":{"type":"Point","coordinates":[-77.73239135742188,39.32633057389337]},"properties":{"NAME":"Harpers Ferry, VA","COUNTRY":"USA","TYPE":"Town"}},{"type":"Feature","geometry":{"type":"Point","coordinates":[-77.62802124023438,39.31517545076218]},"properties":{"NAME":"Brunswick, MD","COUNTRY":"USA","TYPE":"Town"}},{"type":"Feature","geometry":{"type":"Point","coordinates":[-78.2281494140625,39.63953756436671]},"properties":{"NAME":"Berkeley Springs, WV","COUNTRY":"USA","TYPE":"Town"}},{"type":"Feature","geometry":{"type":"Point","coordinates":[-79.1616439819336,38.227123177685996]},"properties":{"NAME":"Churchville, VA","COUNTRY":"USA","TYPE":"Town"}},{"type":"Feature","geometry":{"type":"Point","coordinates":[-78.77008438110352,38.39293526031571]},"properties":{"NAME":"Massanutten Mountain, VA","COUNTRY":"USA","TYPE":"Natural Feature"}},{"type":"Feature","geometry":{"type":"Point","coordinates":[-79.35596466064453,39.01971716735042]},"properties":{"NAME":"Dolly Sods Wilderness Area","COUNTRY":"USA","TYPE":"Wilderness Area"}},{"type":"Feature","geometry":{"type":"Point","coordinates":[-79.52384948730469,38.92416066460569]},"properties":{"NAME":"Harman, WV","COUNTRY":"USA","TYPE":"Town"}},{"type":"Feature","geometry":{"type":"Point","coordinates":[-79.52642440795898,38.70761583218457]},"properties":{"NAME":"Spruce Knob, WV","COUNTRY":"USA","TYPE":"Natural Feature"}},{"type":"Feature","geometry":{"type":"Point","coordinates":[-79.36707973480225,38.83465997069901]},"properties":{"NAME":"Seneca Rocks, WV","COUNTRY":"USA","TYPE":"Natural Feature"}},{"type":"Feature","geometry":{"type":"Point","coordinates":[-79.42248344421387,39.01898363535647]},"properties":{"NAME":"Whitegrass Ski Area, WV","COUNTRY":"USA","TYPE":"Natural Feature"}},{"type":"Feature","geometry":{"type":"Point","coordinates":[-79.46514129638672,39.129793920878676]},"properties":{"NAME":"Davis, WV","COUNTRY":"USA","TYPE":"Town"}},{"type":"Feature","geometry":{"type":"Point","coordinates":[-79.53380584716795,39.10408918216985]},"properties":{"NAME":"Blackwater Falls State Park, WV","COUNTRY":"USA","TYPE":"Natural Feature"}},{"type":"Feature","geometry":{"type":"Point","coordinates":[-79.49878692626953,39.14949897356036]},"properties":{"NAME":"Thomas, WV","COUNTRY":"USA","TYPE":"Town"}},{"type":"Feature","geometry":{"type":"Point","coordinates":[-78.76167297363281,39.65434146406167]},"properties":{"NAME":"Cumberland, MD","COUNTRY":"USA","TYPE":"City"}},{"type":"Feature","geometry":{"type":"Point","coordinates":[-78.97418975830078,39.44176112227503]},"properties":{"NAME":"Keyser, WV","COUNTRY":"USA","TYPE":"Town"}},{"type":"Feature","geometry":{"type":"Point","coordinates":[-78.89685630798338,38.77312351348149]},"properties":{"NAME":"Highland Retreat of the Mennonite Church, VA","COUNTRY":"USA","TYPE":"Natural Feature"}},{"type":"Feature","geometry":{"type":"Point","coordinates":[-80.41786193847656,37.231421807404715]},"properties":{"NAME":"Blacksburg, VA","COUNTRY":"USA","TYPE":"Town"}},{"type":"Feature","geometry":{"type":"Point","coordinates":[-80.40069580078125,37.13842453422676]},"properties":{"NAME":"Christiansburg, VA","COUNTRY":"USA","TYPE":"City"}},{"type":"Feature","geometry":{"type":"Point","coordinates":[-80.54351806640625,37.36360851770406]},"properties":{"NAME":"Jefferson National Forest, VA","COUNTRY":"USA","TYPE":"National Forest"}},{"type":"Feature","geometry":{"type":"Point","coordinates":[-81.3372802734375,37.09462150015557]},"properties":{"NAME":"Burkes Garden, VA","COUNTRY":"USA","TYPE":"Town"}},{"type":"Feature","geometry":{"type":"Point","coordinates":[-80.11024475097656,37.38216158779349]},"properties":{"NAME":"Catawba, VA","COUNTRY":"USA","TYPE":"Town"}},{"type":"Feature","geometry":{"type":"Point","coordinates":[-80.63621520996094,37.32102825630305]},"properties":{"NAME":"Pembroke, VA","COUNTRY":"USA","TYPE":"Town"}},{"type":"Feature","geometry":{"type":"Point","coordinates":[-80.73234558105469,37.32703462722375]},"properties":{"NAME":"Pearisburg, VA","COUNTRY":"USA","TYPE":"Town"}},{"type":"Feature","geometry":{"type":"Point","coordinates":[-80.6121826171875,37.05791696358488]},"properties":{"NAME":"Claytor Lake State Park, VA","COUNTRY":"USA","TYPE":"Natural Feature"}},{"type":"Feature","geometry":{"type":"Point","coordinates":[-80.0357437133789,37.39252748113648]},"properties":{"NAME":"McAfee's Knob, VA","COUNTRY":"USA","TYPE":"Natural Feature"}},{"type":"Feature","geometry":{"type":"Point","coordinates":[-80.05393981933594,37.29590550406618]},"properties":{"NAME":"Salem, VA","COUNTRY":"USA","TYPE":"City"}},{"type":"Feature","geometry":{"type":"Point","coordinates":[-79.93377685546875,37.28497995025375]},"properties":{"NAME":"Roanoke, VA","COUNTRY":"USA","TYPE":"City"}},{"type":"Feature","geometry":{"type":"Point","coordinates":[-77.43026733398438,37.54076623355796]},"properties":{"NAME":"Richmond, VA","COUNTRY":"USA","TYPE":"City"}},{"type":"Feature","geometry":{"type":"Point","coordinates":[-76.69830322265625,37.274052809979054]},"properties":{"NAME":"Williamsburg, VA","COUNTRY":"USA","TYPE":"City"}},{"type":"Feature","geometry":{"type":"Point","coordinates":[-76.00341796875,37.260938147754516]},"properties":{"NAME":"Cape Charles, VA","COUNTRY":"USA","TYPE":"Town"}},{"type":"Feature","geometry":{"type":"Point","coordinates":[-76.42776489257812,36.9800665440453]},"properties":{"NAME":"Newport News, VA","COUNTRY":"USA","TYPE":"City"}},{"type":"Feature","geometry":{"type":"Point","coordinates":[-76.27361297607422,36.86231738103478]},"properties":{"NAME":"Norfolk, VA","COUNTRY":"USA","TYPE":"City"}},{"type":"Feature","geometry":{"type":"Point","coordinates":[-75.98693847656249,36.81808022778526]},"properties":{"NAME":"Virginia Beach, VA","COUNTRY":"USA","TYPE":"City"}},{"type":"Feature","geometry":{"type":"Point","coordinates":[-76.8332290649414,37.13924559906393]},"properties":{"NAME":"Surry, VA","COUNTRY":"USA","TYPE":"Town"}},{"type":"Feature","geometry":{"type":"Point","coordinates":[-79.1400146484375,37.413800350662875]},"properties":{"NAME":"Lynchburg, VA","COUNTRY":"USA","TYPE":"City"}},{"type":"Feature","geometry":{"type":"Point","coordinates":[-79.3487548828125,37.735969208590504]},"properties":{"NAME":"Buena Vista, VA","COUNTRY":"USA","TYPE":"Town"}},{"type":"Feature","geometry":{"type":"Point","coordinates":[-79.43389892578125,37.63380988687157]},"properties":{"NAME":"Glasgow, VA","COUNTRY":"USA","TYPE":"Town"}},{"type":"Feature","geometry":{"type":"Point","coordinates":[-79.991455078125,37.794592824285104]},"properties":{"NAME":"Covington, VA","COUNTRY":"USA","TYPE":"City"}},{"type":"Feature","geometry":{"type":"Point","coordinates":[-79.81842041015625,37.820632846207864]},"properties":{"NAME":"Clifton Forge, VA","COUNTRY":"USA","TYPE":"Town"}},{"type":"Feature","geometry":{"type":"Point","coordinates":[-79.595947265625,37.046408899699564]},"properties":{"NAME":"Smith Mountain Lake, VA","COUNTRY":"USA","TYPE":"Natural Feature"}},{"type":"Feature","geometry":{"type":"Point","coordinates":[-81.22467041015625,37.26968150969715]},"properties":{"NAME":"Bluefield, VA","COUNTRY":"USA","TYPE":"Town"}},{"type":"Feature","geometry":{"type":"Point","coordinates":[-80.57373046875,37.132950540920135]},"properties":{"NAME":"Radford, VA","COUNTRY":"USA","TYPE":"City"}},{"type":"Feature","geometry":{"type":"Point","coordinates":[-81.63940429687499,38.35888785866677]},"properties":{"NAME":"Charleston, WV","COUNTRY":"USA","TYPE":"City"}},{"type":"Feature","geometry":{"type":"Point","coordinates":[-80.31898498535156,36.9092741551487]},"properties":{"NAME":"Floyd, VA","COUNTRY":"USA","TYPE":"Town"}},{"type":"Feature","geometry":{"type":"Point","coordinates":[-81.51512145996094,36.835118682834256]},"properties":{"NAME":"Marion, VA","COUNTRY":"USA","TYPE":"Town"}},{"type":"Feature","geometry":{"type":"Point","coordinates":[-81.41195297241211,36.77587998851891]},"properties":{"NAME":"Sugar Grove, VA","COUNTRY":"USA","TYPE":"Town"}},{"type":"Feature","geometry":{"type":"Point","coordinates":[-80.96700668334961,36.84033938530768]},"properties":{"NAME":"Ivanhoe, VA","COUNTRY":"USA","TYPE":"Town"}},{"type":"Feature","geometry":{"type":"Point","coordinates":[-81.44027709960938,36.70200805115167]},"properties":{"NAME":"Troutdale, VA","COUNTRY":"USA","TYPE":"Town"}},{"type":"Feature","geometry":{"type":"Point","coordinates":[-81.54481887817383,36.6597439325592]},"properties":{"NAME":"Mt. Rogers, VA","COUNTRY":"USA","TYPE":"Natural Feature"}},{"type":"Feature","geometry":{"type":"Point","coordinates":[-81.78394317626953,36.63481511975864]},"properties":{"NAME":"Damascus, VA","COUNTRY":"USA","TYPE":"Town"}},{"type":"Feature","geometry":{"type":"Point","coordinates":[-81.08390808105469,36.95098926024788]},"properties":{"NAME":"Wytheville, VA","COUNTRY":"USA","TYPE":"Town"}},{"type":"Feature","geometry":{"type":"Point","coordinates":[-82.17361450195312,36.598991657383294]},"properties":{"NAME":"Bristol, VA","COUNTRY":"USA","TYPE":"City"}},{"type":"Feature","geometry":{"type":"Point","coordinates":[-83.10813903808594,36.69044623523481]},"properties":{"NAME":"Jonesville, VA","COUNTRY":"USA","TYPE":"Town"}},{"type":"Feature","geometry":{"type":"Point","coordinates":[-83.02505493164062,36.76116629868542]},"properties":{"NAME":"Pennington Gap, VA","COUNTRY":"USA","TYPE":"Town"}},{"type":"Feature","geometry":{"type":"Point","coordinates":[-81.33848190307617,37.30505443455426]},"properties":{"NAME":"Pocahontas, WV","COUNTRY":"USA","TYPE":"Town"}},{"type":"Feature","geometry":{"type":"Point","coordinates":[-79.03289794921875,38.03078569382294]},"properties":{"NAME":"Stuarts Draft, VA","COUNTRY":"USA","TYPE":"Town"}},{"type":"Feature","geometry":{"type":"Point","coordinates":[-78.62125396728516,38.40840605494758]},"properties":{"NAME":"Elkton, VA","COUNTRY":"USA","TYPE":"Town"}},{"type":"Feature","geometry":{"type":"Point","coordinates":[-78.93814086914062,38.417014454352035]},"properties":{"NAME":"Dayton, VA","COUNTRY":"USA","TYPE":"Town"}},{"type":"Feature","geometry":{"type":"Point","coordinates":[-78.97590637207031,38.38244014132493]},"properties":{"NAME":"Bridgewater, VA","COUNTRY":"USA","TYPE":"Town"}},{"type":"Feature","geometry":{"type":"Point","coordinates":[-78.27140808105467,39.02558514933794]},"properties":{"NAME":"Middletown, VA","COUNTRY":"USA","TYPE":"Town"}},{"type":"Feature","geometry":{"type":"Point","coordinates":[-78.50555419921875,38.88355020746342]},"properties":{"NAME":"Woodstock, VA","COUNTRY":"USA","TYPE":"Town"}},{"type":"Feature","geometry":{"type":"Point","coordinates":[-78.64151000976562,38.74685401687219]},"properties":{"NAME":"Mount Jackson, VA","COUNTRY":"USA","TYPE":"Town"}},{"type":"Feature","geometry":{"type":"Point","coordinates":[-75.1519775390625,39.95922773254976]},"properties":{"NAME":"Philadelphia, PA","COUNTRY":"USA","TYPE":"City"}},{"type":"Feature","geometry":{"type":"Point","coordinates":[-76.30142211914062,40.047591462658794]},"properties":{"NAME":"Lancaster, PA","COUNTRY":"USA","TYPE":"City"}},{"type":"Feature","geometry":{"type":"Point","coordinates":[-75.92239379882812,40.34131069983192]},"properties":{"NAME":"Reading, PA","COUNTRY":"USA","TYPE":"City"}},{"type":"Feature","geometry":{"type":"Point","coordinates":[-76.17919921875,40.17992254722979]},"properties":{"NAME":"Ephrata, PA","COUNTRY":"USA","TYPE":"Town"}},{"type":"Feature","geometry":{"type":"Point","coordinates":[-75.32415390014648,40.312388728625066]},"properties":{"NAME":"Souderton, PA","COUNTRY":"USA","TYPE":"Town"}},{"type":"Feature","geometry":{"type":"Point","coordinates":[-73.99566650390625,40.72644570551446]},"properties":{"NAME":"New York, NY","COUNTRY":"USA","TYPE":"City"}},{"type":"Feature","geometry":{"type":"Point","coordinates":[-74.69261169433592,41.379384735449385]},"properties":{"NAME":"Port Jervis, NY","COUNTRY":"USA","TYPE":"Town"}},{"type":"Feature","geometry":{"type":"Point","coordinates":[-75.88119506835938,41.24657932865876]},"properties":{"NAME":"Wilkes-Barre, PA","COUNTRY":"USA","TYPE":"City"}},{"type":"Feature","geometry":{"type":"Point","coordinates":[-75.6573486328125,41.410805789669816]},"properties":{"NAME":"Scranton, PA","COUNTRY":"USA","TYPE":"City"}},{"type":"Feature","geometry":{"type":"Point","coordinates":[-76.87408447265625,40.26066474660849]},"properties":{"NAME":"Harrisburg, PA","COUNTRY":"USA","TYPE":"City"}},{"type":"Feature","geometry":{"type":"Point","coordinates":[-77.6458740234375,39.94975340768179]},"properties":{"NAME":"Chambersburg, VA","COUNTRY":"USA","TYPE":"Town"}},{"type":"Feature","geometry":{"type":"Point","coordinates":[-77.85873413085938,40.79717741518769]},"properties":{"NAME":"State College, PA","COUNTRY":"USA","TYPE":"Town"}},{"type":"Feature","geometry":{"type":"Point","coordinates":[-82.34390258789062,36.31733823488624]},"properties":{"NAME":"Johnson City, TN","COUNTRY":"USA","TYPE":"City"}},{"type":"Feature","geometry":{"type":"Point","coordinates":[-80.8428955078125,35.23440284749622]},"properties":{"NAME":"Charlotte, NC","COUNTRY":"USA","TYPE":"City"}},{"type":"Feature","geometry":{"type":"Point","coordinates":[-81.67098999023438,36.22045692550888]},"properties":{"NAME":"Boone, NC","COUNTRY":"USA","TYPE":"Town"}},{"type":"Feature","geometry":{"type":"Point","coordinates":[-81.02279663085938,34.92534898410142]},"properties":{"NAME":"Rock Hill, SC","COUNTRY":"USA","TYPE":"Town"}},{"type":"Feature","geometry":{"type":"Point","coordinates":[-81.03515625,34.00713506435885]},"properties":{"NAME":"Columbia, SC","COUNTRY":"USA","TYPE":"City"}},{"type":"Feature","geometry":{"type":"Point","coordinates":[-81.485595703125,31.154057975490836]},"properties":{"NAME":"Brunswick, GA","COUNTRY":"USA","TYPE":"Town"}},{"type":"Feature","geometry":{"type":"Point","coordinates":[-81.6775131225586,36.135240632625454]},"properties":{"NAME":"Blowing Rock, NC","COUNTRY":"USA","TYPE":"Town"}},{"type":"Feature","geometry":{"type":"Point","coordinates":[-85.7537841796875,38.257593120395356]},"properties":{"NAME":"Louisville, KY","COUNTRY":"USA","TYPE":"City"}},{"type":"Feature","geometry":{"type":"Point","coordinates":[-87.5445556640625,37.983174833513395]},"properties":{"NAME":"Evansville, IN","COUNTRY":"USA","TYPE":"City"}},{"type":"Feature","geometry":{"type":"Point","coordinates":[-81.65794372558594,30.32843467754261]},"properties":{"NAME":"Jacksonville, FL","COUNTRY":"USA","TYPE":"City"},"id":110},{"type":"Feature","geometry":{"type":"Point","coordinates":[-82.52792358398436,27.338224865920445]},"properties":{"NAME":"Sarasota, FL","COUNTRY":"USA","TYPE":"City"}},{"type":"Feature","geometry":{"type":"Point","coordinates":[-82.57392883300781,27.497613113772125]},"properties":{"NAME":"Bradenton, FL","COUNTRY":"USA","TYPE":"City"}},{"type":"Feature","geometry":{"type":"Point","coordinates":[-81.37710571289062,28.54954469910389]},"properties":{"NAME":"Orlando, FL","COUNTRY":"USA","TYPE":"City"},"id":113},{"type":"Feature","geometry":{"type":"Point","coordinates":[-80.25100708007812,27.197235847660718]},"properties":{"NAME":"Stuart, FL","COUNTRY":"USA","TYPE":"Town"}},{"type":"Feature","geometry":{"type":"Point","coordinates":[-96.79779052734375,32.786120011700625]},"properties":{"NAME":"Dallas, TX","COUNTRY":"USA","TYPE":"City"}},{"type":"Feature","geometry":{"type":"Point","coordinates":[-90.19775390625,38.659777730712534]},"properties":{"NAME":"St. Louis","COUNTRY":"USA","TYPE":"City"}},{"type":"Feature","geometry":{"type":"Point","coordinates":[-91.70631408691406,41.484405435611926]},"properties":{"NAME":"Kalona, IA","COUNTRY":"USA","TYPE":"Town"}},{"type":"Feature","geometry":{"type":"Point","coordinates":[-91.58203125,41.48131901671846]},"properties":{"NAME":"Riverside, IA","COUNTRY":"USA","TYPE":"Town"}},{"type":"Feature","geometry":{"type":"Point","coordinates":[-91.669921875,41.98603585974727]},"properties":{"NAME":"Cedar Rapids, IA","COUNTRY":"USA","TYPE":"City"}},{"type":"Feature","geometry":{"type":"Point","coordinates":[-91.53259277343749,41.66265316924903]},"properties":{"NAME":"Iowa City, IA","COUNTRY":"USA","TYPE":"City"}},{"type":"Feature","geometry":{"type":"Point","coordinates":[-93.603515625,41.590796851056005]},"properties":{"NAME":"Des Moines, IA","COUNTRY":"USA","TYPE":"City"}},{"type":"Feature","geometry":{"type":"Point","coordinates":[-91.04095458984375,41.42831257152294]},"properties":{"NAME":"Muscatine, IA","COUNTRY":"USA","TYPE":"Town"}},{"type":"Feature","geometry":{"type":"Point","coordinates":[-90.5712890625,41.53325414281322]},"properties":{"NAME":"Davenport, IA","COUNTRY":"USA","TYPE":"City"}},{"type":"Feature","geometry":{"type":"Point","coordinates":[-90.65917968749999,42.508552415528634]},"properties":{"NAME":"Dubuque, IA","COUNTRY":"USA","TYPE":"Town"}},{"type":"Feature","geometry":{"type":"Point","coordinates":[-89.73495483398438,43.47086090917325]},"properties":{"NAME":"Baraboo, WI","COUNTRY":"USA","TYPE":"Town"}},{"type":"Feature","geometry":{"type":"Point","coordinates":[-92.4664306640625,44.03232064275084]},"properties":{"NAME":"Rochester, MN","COUNTRY":"USA","TYPE":"Town"}},{"type":"Feature","geometry":{"type":"Point","coordinates":[-89.27215576171874,40.7196806451724]},"properties":{"NAME":"Eureka, IL","COUNTRY":"USA","TYPE":"Town"}},{"type":"Feature","geometry":{"type":"Point","coordinates":[-86.15753173828125,39.7642140375156]},"properties":{"NAME":"Indianapolis, IN","COUNTRY":"USA","TYPE":"City"}},{"type":"Feature","geometry":{"type":"Point","coordinates":[-83.023681640625,39.9434364619742]},"properties":{"NAME":"Columbus, OH","COUNTRY":"USA","TYPE":"City"}},{"type":"Feature","geometry":{"type":"Point","coordinates":[-83.75598907470703,40.25149434293997]},"properties":{"NAME":"West Liberty, OH","COUNTRY":"USA","TYPE":"Town"}},{"type":"Feature","geometry":{"type":"Point","coordinates":[-81.74493312835693,40.74112807355683]},"properties":{"NAME":"Kidron, OH","COUNTRY":"USA","TYPE":"Town"}},{"type":"Feature","geometry":{"type":"Point","coordinates":[-81.69605255126953,40.800036305086536]},"properties":{"NAME":"Dalton, OH","COUNTRY":"USA","TYPE":"Town"}},{"type":"Feature","geometry":{"type":"Point","coordinates":[-84.30564880371092,41.519374575145406]},"properties":{"NAME":"Archbold, OH","COUNTRY":"USA","TYPE":"Town"}},{"type":"Feature","geometry":{"type":"Point","coordinates":[-83.56201171875,41.64828831259535]},"properties":{"NAME":"Toledo, OH","COUNTRY":"USA","TYPE":"City"}},{"type":"Feature","geometry":{"type":"Point","coordinates":[-83.08959960937499,42.32606244456202]},"properties":{"NAME":"Detroit, MI","COUNTRY":"USA","TYPE":"City"}},{"type":"Feature","geometry":{"type":"Point","coordinates":[-76.497802734375,42.44372793752476]},"properties":{"NAME":"Ithaca, NY","COUNTRY":"USA","TYPE":"City"}},{"type":"Feature","geometry":{"type":"Point","coordinates":[-72.6690673828125,41.76106872528616]},"properties":{"NAME":"Hartford, CT","COUNTRY":"USA","TYPE":"City"}},{"type":"Feature","geometry":{"type":"Point","coordinates":[-71.41250610351562,41.826595373571706]},"properties":{"NAME":"Providence, RI","COUNTRY":"USA","TYPE":"City"}},{"type":"Feature","geometry":{"type":"Point","coordinates":[-69.97329711914062,41.86853817536259]},"properties":{"NAME":"Cape Cod, MA","COUNTRY":"USA","TYPE":"Natural Feature"}},{"type":"Feature","geometry":{"type":"Point","coordinates":[-70.2630615234375,43.66588482492509]},"properties":{"NAME":"Portland, ME","COUNTRY":"USA","TYPE":"Town"}},{"type":"Feature","geometry":{"type":"Point","coordinates":[-68.77166748046875,44.80132682904856]},"properties":{"NAME":"Bangor, ME","COUNTRY":"USA","TYPE":"Town"}},{"type":"Feature","geometry":{"type":"Point","coordinates":[-68.203125,44.38669150215206]},"properties":{"NAME":"Bar Harbor, ME","COUNTRY":"USA","TYPE":"Town"}},{"type":"Feature","geometry":{"type":"Point","coordinates":[-68.28483581542969,44.33563634908042]},"properties":{"NAME":"Acadia National Park, ME","COUNTRY":"USA","TYPE":"National Park"}},{"type":"Feature","geometry":{"type":"Point","coordinates":[-71.455078125,42.994603451901305]},"properties":{"NAME":"Manchester, NH","COUNTRY":"USA","TYPE":"City"}},{"type":"Feature","geometry":{"type":"Point","coordinates":[-73.1689453125,44.02047156335411]},"properties":{"NAME":"Middlebury, VT","COUNTRY":"USA","TYPE":"Town"}},{"type":"Feature","geometry":{"type":"Point","coordinates":[-73.24790954589844,44.16841480642917]},"properties":{"NAME":"Vergennes, VT","COUNTRY":"USA","TYPE":"Town"}},{"type":"Feature","geometry":{"type":"Point","coordinates":[-72.564697265625,44.24913396886894]},"properties":{"NAME":"Montpelier, VT","COUNTRY":"USA","TYPE":"City"}},{"type":"Feature","geometry":{"type":"Point","coordinates":[-73.19091796875,44.469071224701096]},"properties":{"NAME":"Burlington, VT","COUNTRY":"USA","TYPE":"City"}},{"type":"Feature","geometry":{"type":"Point","coordinates":[-72.75489807128906,44.337109717061864]},"properties":{"NAME":"Waterbury, VT","COUNTRY":"USA","TYPE":"Town"}},{"type":"Feature","geometry":{"type":"Point","coordinates":[-72.68280029296875,44.46711115202032]},"properties":{"NAME":"Stowe, VT","COUNTRY":"USA","TYPE":"Town"}},{"type":"Feature","geometry":{"type":"Point","coordinates":[-72.81455039978027,44.54338286692009]},"properties":{"NAME":"Mt. Mansfield, VT","COUNTRY":"USA","TYPE":"Natural Feature"}},{"type":"Feature","geometry":{"type":"Point","coordinates":[-72.90802001953125,44.264871151101985]},"properties":{"NAME":"Green Mountain National Forest, VT","COUNTRY":"USA","TYPE":"National Forest"}},{"type":"Feature","geometry":{"type":"Point","coordinates":[-73.79241943359375,44.25700308645885]},"properties":{"NAME":"Keene, NY","COUNTRY":"USA","TYPE":"Town"}},{"type":"Feature","geometry":{"type":"Point","coordinates":[-73.72787475585938,44.374913492661456]},"properties":{"NAME":"Jay, NY","COUNTRY":"USA","TYPE":"Town"}},{"type":"Feature","geometry":{"type":"Point","coordinates":[-73.98193359375,44.280112529946315]},"properties":{"NAME":"Lake Placid, NY","COUNTRY":"USA","TYPE":"Town"}},{"type":"Feature","geometry":{"type":"Point","coordinates":[-73.43124389648438,43.846412964702395]},"properties":{"NAME":"Ticonderoga, NY","COUNTRY":"USA","TYPE":"Town"}},{"type":"Feature","geometry":{"type":"Point","coordinates":[-73.90296936035156,44.36509667482153]},"properties":{"NAME":"Whiteface Mountain, NY","COUNTRY":"USA","TYPE":"Natural Feature"}},{"type":"Feature","geometry":{"type":"Point","coordinates":[-73.75946044921875,42.65214190481525]},"properties":{"NAME":"Albany, NY","COUNTRY":"USA","TYPE":"City"}},{"type":"Feature","geometry":{"type":"Point","coordinates":[-78.87016296386719,37.759315660088305]},"properties":{"NAME":"Lovingston, VA","COUNTRY":"USA","TYPE":"Town"}},{"type":"Feature","geometry":{"type":"Point","coordinates":[-74.168701171875,40.733730386116875]},"properties":{"NAME":"Newark, NJ","COUNTRY":"USA","TYPE":"City"}},{"type":"Feature","geometry":{"type":"Point","coordinates":[-94.59228515625,39.06184913429154]},"properties":{"NAME":"Kansas City, KS","COUNTRY":"USA","TYPE":"City"}},{"type":"Feature","geometry":{"type":"Point","coordinates":[-95.69091796875,39.036252959636606]},"properties":{"NAME":"Topeka, KS","COUNTRY":"USA","TYPE":"City"}},{"type":"Feature","geometry":{"type":"Point","coordinates":[-104.9798583984375,39.73676229957947]},"properties":{"NAME":"Denver, CO","COUNTRY":"USA","TYPE":"City"}},{"type":"Feature","geometry":{"type":"Point","coordinates":[-105.09796142578124,39.71986348549764]},"properties":{"NAME":"Lakewood, CO","COUNTRY":"USA","TYPE":"City"}},{"type":"Feature","geometry":{"type":"Point","coordinates":[-104.83016967773438,39.72884149621561]},"properties":{"NAME":"Aurora, CO","COUNTRY":"USA","TYPE":"City"}},{"type":"Feature","geometry":{"type":"Point","coordinates":[-104.7601318359375,39.51251701659638]},"properties":{"NAME":"Parker, CO","COUNTRY":"USA","TYPE":"City"}},{"type":"Feature","geometry":{"type":"Point","coordinates":[-105.01419067382812,39.61309414625366]},"properties":{"NAME":"Littleton, CO","COUNTRY":"USA","TYPE":"City"}},{"type":"Feature","geometry":{"type":"Point","coordinates":[-104.87480163574219,39.579231826349016]},"properties":{"NAME":"Centennial, CO","COUNTRY":"USA","TYPE":"City"}},{"type":"Feature","geometry":{"type":"Point","coordinates":[-105.26824951171875,40.01920130768676]},"properties":{"NAME":"Boulder, CO","COUNTRY":"USA","TYPE":"City"}},{"type":"Feature","geometry":{"type":"Point","coordinates":[-105.10620117187499,40.166281254206545]},"properties":{"NAME":"Longmont, CO","COUNTRY":"USA","TYPE":"City"}},{"type":"Feature","geometry":{"type":"Point","coordinates":[-105.0787353515625,40.39885600103786]},"properties":{"NAME":"Loveland, CO","COUNTRY":"USA","TYPE":"City"}},{"type":"Feature","geometry":{"type":"Point","coordinates":[-105.0732421875,40.55763465737646]},"properties":{"NAME":"Fort Collins, CO","COUNTRY":"USA","TYPE":"City"}},{"type":"Feature","geometry":{"type":"Point","coordinates":[-104.81781005859374,38.83328935686689]},"properties":{"NAME":"Colorado Springs, CO","COUNTRY":"USA","TYPE":"City"}},{"type":"Feature","geometry":{"type":"Point","coordinates":[-105.05607604980469,38.99410572845627]},"properties":{"NAME":"Woodland Park, CO","COUNTRY":"USA","TYPE":"City"}},{"type":"Feature","geometry":{"type":"Point","coordinates":[-105.16113281249999,38.92522904714054]},"properties":{"NAME":"Divide, CO","COUNTRY":"USA","TYPE":"Town"}},{"type":"Feature","geometry":{"type":"Point","coordinates":[-105.32249450683594,39.632134425964]},"properties":{"NAME":"Evergreen, CO","COUNTRY":"USA","TYPE":"Town"}},{"type":"Feature","geometry":{"type":"Point","coordinates":[-105.50445556640625,39.73887436009367]},"properties":{"NAME":"Idaho Springs, CO","COUNTRY":"USA","TYPE":"Town"}},{"type":"Feature","geometry":{"type":"Point","coordinates":[-105.69671630859375,39.705601889439095]},"properties":{"NAME":"Georgetown, CO","COUNTRY":"USA","TYPE":"Town"}},{"type":"Feature","geometry":{"type":"Point","coordinates":[-106.06201171875,39.28223089949212]},"properties":{"NAME":"Alma, CO","COUNTRY":"USA","TYPE":"Town"}},{"type":"Feature","geometry":{"type":"Point","coordinates":[-104.6063232421875,38.25974980039479]},"properties":{"NAME":"Pueblo, CO","COUNTRY":"USA","TYPE":"City"}},{"type":"Feature","geometry":{"type":"Point","coordinates":[-105.28884887695312,38.94659331893374]},"properties":{"NAME":"Florissant, CO","COUNTRY":"USA","TYPE":"town"}},{"type":"Feature","geometry":{"type":"Point","coordinates":[-105.35957336425781,38.97916144039182]},"properties":{"NAME":"Lake George, CO","COUNTRY":"USA","TYPE":"Town"}},{"type":"Feature","geometry":{"type":"Point","coordinates":[-106.05926513671875,39.63319206567459]},"properties":{"NAME":"Silverthorne, CO","COUNTRY":"USA","TYPE":"Town"}},{"type":"Feature","geometry":{"type":"Point","coordinates":[-106.04827880859375,39.482845404533364]},"properties":{"NAME":"Breckenridge, CO","COUNTRY":"USA","TYPE":"Town"}},{"type":"Feature","geometry":{"type":"Point","coordinates":[-105.79833984375,39.01918369029134]},"properties":{"NAME":"Hartsel, CO","COUNTRY":"USA","TYPE":"Town"}},{"type":"Feature","geometry":{"type":"Point","coordinates":[-106.00090026855469,39.22480659786851]},"properties":{"NAME":"Fairplay, CO","COUNTRY":"USA","TYPE":"Town"}},{"type":"Feature","geometry":{"type":"Point","coordinates":[-106.09771728515625,39.574733241766396]},"properties":{"NAME":"Frisco, CO","COUNTRY":"USA","TYPE":"Town"}},{"type":"Feature","geometry":{"type":"Point","coordinates":[-105.50857543945312,39.95817509460007]},"properties":{"NAME":"Nederland, CO","COUNTRY":"USA","TYPE":"Town"}},{"type":"Feature","geometry":{"type":"Point","coordinates":[-106.38473510742186,39.64059509088576]},"properties":{"NAME":"Vail, CO","COUNTRY":"USA","TYPE":"Town"}},{"type":"Feature","geometry":{"type":"Point","coordinates":[-106.28585815429688,39.25033431567789]},"properties":{"NAME":"Leadville, CO","COUNTRY":"USA","TYPE":"City"}},{"type":"Feature","geometry":{"type":"Point","coordinates":[-106.13136291503906,38.84131208727261]},"properties":{"NAME":"Buena Vista, CO","COUNTRY":"USA","TYPE":"Town"}},{"type":"Feature","geometry":{"type":"Point","coordinates":[-105.87249755859375,37.477037796698056]},"properties":{"NAME":"Alamosa, CO","COUNTRY":"USA","TYPE":"City"}},{"type":"Feature","geometry":{"type":"Point","coordinates":[-106.35040283203125,37.67947293019486]},"properties":{"NAME":"Del Norte, CO","COUNTRY":"USA","TYPE":"Town"}},{"type":"Feature","geometry":{"type":"Point","coordinates":[-105.53466796874999,37.77505678240509]},"properties":{"NAME":"Great Sand Dunes National Park, CO","COUNTRY":"USA","TYPE":"National Park"}},{"type":"Feature","geometry":{"type":"Point","coordinates":[-105.5181884765625,40.3789822704901]},"properties":{"NAME":"Estes Park, CO","COUNTRY":"USA","TYPE":"Town"}},{"type":"Feature","geometry":{"type":"Point","coordinates":[-105.71868896484375,40.36328834091583]},"properties":{"NAME":"Rocky Mountain National Park, CO","COUNTRY":"USA","TYPE":"National Park"}},{"type":"Feature","geometry":{"type":"Point","coordinates":[-106.1444091796875,37.58267747761301]},"properties":{"NAME":"Monte Vista, CO","COUNTRY":"USA","TYPE":"Town"}},{"type":"Feature","geometry":{"type":"Point","coordinates":[-107.00752258300781,37.269135079316634]},"properties":{"NAME":"Pagosa Springs, CO","COUNTRY":"USA","TYPE":"Town"}},{"type":"Feature","geometry":{"type":"Point","coordinates":[-107.8802490234375,37.276238364942955]},"properties":{"NAME":"Durango, CO","COUNTRY":"USA","TYPE":"City"}},{"type":"Feature","geometry":{"type":"Point","coordinates":[-108.58612060546875,37.35269280367274]},"properties":{"NAME":"Cortez, CO","COUNTRY":"USA","TYPE":"Town"}},{"type":"Feature","geometry":{"type":"Point","coordinates":[-106.92564010620117,37.84964579824982]},"properties":{"NAME":"Creede, CO","COUNTRY":"USA","TYPE":"Town"}},{"type":"Feature","geometry":{"type":"Point","coordinates":[-107.31462478637695,38.030244835004126]},"properties":{"NAME":"Lake City, CO","COUNTRY":"USA","TYPE":"Town"}},{"type":"Feature","geometry":{"type":"Point","coordinates":[-107.666015625,37.811411388625636]},"properties":{"NAME":"Silverton, CO","COUNTRY":"USA","TYPE":"Town"}},{"type":"Feature","geometry":{"type":"Point","coordinates":[-107.67142295837402,38.02246954820299]},"properties":{"NAME":"Ouray, CO","COUNTRY":"USA","TYPE":"Town"}},{"type":"Feature","geometry":{"type":"Point","coordinates":[-106.82247161865234,39.19128737364821]},"properties":{"NAME":"Aspen, CO","COUNTRY":"USA","TYPE":"Town"}},{"type":"Feature","geometry":{"type":"Point","coordinates":[-107.59185791015625,38.87072102699573]},"properties":{"NAME":"Paonia, CO","COUNTRY":"USA","TYPE":"Town"}},{"type":"Feature","geometry":{"type":"Point","coordinates":[-107.87750244140625,38.47939467327645]},"properties":{"NAME":"Montrose, CO","COUNTRY":"USA","TYPE":"City"}},{"type":"Feature","geometry":{"type":"Point","coordinates":[-106.92821502685547,38.54601733154524]},"properties":{"NAME":"Gunnison, CO","COUNTRY":"USA","TYPE":"Town"}},{"type":"Feature","geometry":{"type":"Point","coordinates":[-107.21145629882811,39.400917885268726]},"properties":{"NAME":"Carbondale, CO","COUNTRY":"USA","TYPE":"Town"}},{"type":"Feature","geometry":{"type":"Point","coordinates":[-107.32337951660156,39.55117706333805]},"properties":{"NAME":"Glenwood Springs, CO","COUNTRY":"USA","TYPE":"Town"}},{"type":"Feature","geometry":{"type":"Point","coordinates":[-108.54904174804688,39.069312937859586]},"properties":{"NAME":"Grand Junction, CO","COUNTRY":"USA","TYPE":"City"}},{"type":"Feature","geometry":{"type":"Point","coordinates":[-107.54688262939452,40.515365202529445]},"properties":{"NAME":"Craig, CO","COUNTRY":"USA","TYPE":"Town"}},{"type":"Feature","geometry":{"type":"Point","coordinates":[-104.70245361328125,40.42499671108253]},"properties":{"NAME":"Greeley, CO","COUNTRY":"USA","TYPE":"City"}},{"type":"Feature","geometry":{"type":"Point","coordinates":[-104.81231689453125,40.08542661727012]},"properties":{"NAME":"Fort Lupton, CO","COUNTRY":"USA","TYPE":"Town"}},{"type":"Feature","geometry":{"type":"Point","coordinates":[-104.81120109558104,39.98356546496842]},"properties":{"NAME":"Brighton, cO","COUNTRY":"USA","TYPE":"Town"}},{"type":"Feature","geometry":{"type":"Point","coordinates":[-104.82330322265625,40.21611114495333]},"properties":{"NAME":"Platteville, CO","COUNTRY":"USA","TYPE":"Town"}},{"type":"Feature","geometry":{"type":"Point","coordinates":[-105.2215576171875,39.75893570672903]},"properties":{"NAME":"Golden, CO","COUNTRY":"USA","TYPE":"City"}},{"type":"Feature","geometry":{"type":"Point","coordinates":[-104.71240997314453,40.5307627211687]},"properties":{"NAME":"Eaton, CO","COUNTRY":"USA","TYPE":"Town"}},{"type":"Feature","geometry":{"type":"Point","coordinates":[-104.73163604736327,40.58267063809529]},"properties":{"NAME":"Ault, CO","COUNTRY":"USA","TYPE":"Town"}},{"type":"Feature","geometry":{"type":"Point","coordinates":[-105.07530212402342,39.76896418929674]},"properties":{"NAME":"Wheat Ridge, CO","COUNTRY":"USA","TYPE":"City"}},{"type":"Feature","geometry":{"type":"Point","coordinates":[-104.07537460327148,40.702634849027795]},"properties":{"NAME":"Keota, CO","COUNTRY":"USA","TYPE":"Town"}},{"type":"Feature","geometry":{"type":"Point","coordinates":[-104.32759881019592,40.634253337508035]},"properties":{"NAME":"Briggsdale, CO","COUNTRY":"USA","TYPE":"Town"}},{"type":"Feature","geometry":{"type":"Point","coordinates":[-101.70730590820311,39.35129035526705]},"properties":{"NAME":"Goodland, KS","COUNTRY":"USA","TYPE":"Town"}},{"type":"Feature","geometry":{"type":"Point","coordinates":[-99.327392578125,38.87927407130936]},"properties":{"NAME":"Hays, KS","COUNTRY":"USA","TYPE":"Town"}},{"type":"Feature","geometry":{"type":"Point","coordinates":[-85.83343505859374,41.58155237169248]},"properties":{"NAME":"Goshen, IN","COUNTRY":"USA","TYPE":"Town"}},{"type":"Feature","geometry":{"type":"Point","coordinates":[-110.25878906249999,36.71962271257377]},"properties":{"NAME":"Kayenta, AZ","COUNTRY":"USA","TYPE":"Town"}},{"type":"Feature","geometry":{"type":"Point","coordinates":[-111.65130615234375,35.19401151791166]},"properties":{"NAME":"Flagstaff, AZ","COUNTRY":"USA","TYPE":"City"}},{"type":"Feature","geometry":{"type":"Point","coordinates":[-111.76494598388672,34.86621482446047]},"properties":{"NAME":"Sedona, AZ","COUNTRY":"USA","TYPE":"Town"}},{"type":"Feature","geometry":{"type":"Point","coordinates":[-112.00561523437499,33.458942753687644]},"properties":{"NAME":"Phoenix, AZ","COUNTRY":"USA","TYPE":"City"}},{"type":"Feature","geometry":{"type":"Point","coordinates":[-111.2310791015625,36.12900165569652]},"properties":{"NAME":"Tuba City, AZ","COUNTRY":"USA","TYPE":"Town"}},{"type":"Feature","geometry":{"type":"Point","coordinates":[-112.24456787109375,36.15118243124801]},"properties":{"NAME":"Grand Canyon National Park, AZ","COUNTRY":"USA","TYPE":"National Park"}},{"type":"Feature","geometry":{"type":"Point","coordinates":[-115.1531982421875,36.16892253622745]},"properties":{"NAME":"Las Vegas, NV","COUNTRY":"USA","TYPE":"City"}},{"type":"Feature","geometry":{"type":"Point","coordinates":[-117.158203125,32.74108223150125]},"properties":{"NAME":"San Diego, CA","COUNTRY":"USA","TYPE":"City"}},{"type":"Feature","geometry":{"type":"Point","coordinates":[-118.2568359375,34.016241889667015]},"properties":{"NAME":"Los Angeles, CA","COUNTRY":"USA","TYPE":"City"}},{"type":"Feature","geometry":{"type":"Point","coordinates":[-116.62261962890624,32.58153501413734]},"properties":{"NAME":"Tecate, Mexico","COUNTRY":"Mexico","TYPE":"Town"}},{"type":"Feature","geometry":{"type":"Point","coordinates":[-116.6143798828125,31.861229825930895]},"properties":{"NAME":"Ensenada, Mexico","COUNTRY":"Mexico","TYPE":"City"}},{"type":"Feature","geometry":{"type":"Point","coordinates":[-117.04010009765625,32.532920675187846]},"properties":{"NAME":"Tijuana, Mexico","COUNTRY":"Mexico","TYPE":"City"}},{"type":"Feature","geometry":{"type":"Point","coordinates":[-119.78942871093749,36.76969233214548]},"properties":{"NAME":"Fresno, CA","COUNTRY":"USA","TYPE":"City"}},{"type":"Feature","geometry":{"type":"Point","coordinates":[-121.50329589843749,38.57393751557591]},"properties":{"NAME":"Sacramento, CA","COUNTRY":"USA","TYPE":"City"}},{"type":"Feature","geometry":{"type":"Point","coordinates":[-119.794921875,39.52099229357195]},"properties":{"NAME":"Reno, CA","COUNTRY":"USA","TYPE":"City"}},{"type":"Feature","geometry":{"type":"Point","coordinates":[-111.95068359374999,40.78054143186031]},"properties":{"NAME":"Salt Lake City, UT","COUNTRY":"USA","TYPE":"City"}},{"type":"Feature","geometry":{"type":"Point","coordinates":[-110.76553344726561,43.48082639482503]},"properties":{"NAME":"Jackson, WY","COUNTRY":"USA","TYPE":"Town"}},{"type":"Feature","geometry":{"type":"Point","coordinates":[-113.719482421875,48.65831447771188]},"properties":{"NAME":"Glacier National Park, MT","COUNTRY":"USA","TYPE":"National Park"}},{"type":"Feature","geometry":{"type":"Point","coordinates":[-122.6953125,45.4986468234261]},"properties":{"NAME":"Portland, OR","COUNTRY":"USA","TYPE":"City"}},{"type":"Feature","geometry":{"type":"Point","coordinates":[-116.81213378906249,47.68757916850813]},"properties":{"NAME":"Couer D'Alene, ID","COUNTRY":"USA","TYPE":"City"}},{"type":"Feature","geometry":{"type":"Point","coordinates":[-119.1302490234375,46.2102496001872]},"properties":{"NAME":"Kennewick, WA","COUNTRY":"USA","TYPE":"Town"},"id":246},{"type":"Feature","geometry":{"type":"Point","coordinates":[-103.22753906249999,44.08758502824518]},"properties":{"NAME":"Rapid City, SD","COUNTRY":"USA","TYPE":"City"}},{"type":"Feature","geometry":{"type":"Point","coordinates":[-99.0692138671875,40.6723059714534]},"properties":{"NAME":"Kearney, NE","COUNTRY":"USA","TYPE":"Town"}},{"type":"Feature","geometry":{"type":"Point","coordinates":[-0.06591796875,51.467696956223385]},"properties":{"NAME":"London, UK","COUNTRY":"UK","TYPE":"City"}},{"type":"Feature","geometry":{"type":"Point","coordinates":[13.403320312499998,52.5095347703273]},"properties":{"NAME":"Berlin, Germany","COUNTRY":"Germany","TYPE":"City"}},{"type":"Feature","geometry":{"type":"Point","coordinates":[17.05078125,51.11041991029261]},"properties":{"NAME":"Wroclaw, Poland","COUNTRY":"Poland","TYPE":"City"}},{"type":"Feature","geometry":{"type":"Point","coordinates":[19.072265625,47.487513008956554]},"properties":{"NAME":"Budapest, Hungary","COUNTRY":"Hungary","TYPE":"City"}},{"type":"Feature","geometry":{"type":"Point","coordinates":[24.158935546875,45.79050946752472]},"properties":{"NAME":"Sibiu, Romania","COUNTRY":"Romania","TYPE":"City"}},{"type":"Feature","geometry":{"type":"Point","coordinates":[23.3404541015625,42.69454866207692]},"properties":{"NAME":"Sofia, Bulgaria","COUNTRY":"Bulgaria","TYPE":"City"}},{"type":"Feature","geometry":{"type":"Point","coordinates":[35.2276611328125,31.756196257571325]},"properties":{"NAME":"Jerusalem, Israel","COUNTRY":"Israel","TYPE":"City"}},{"type":"Feature","geometry":{"type":"Point","coordinates":[-105.51578521728516,37.43752065647132]},"properties":{"NAME":"Blanca, CO","COUNTRY":"USA","TYPE":"Town"}},{"type":"Feature","geometry":{"type":"Point","coordinates":[-105.42617797851561,37.201893907733826]},"properties":{"NAME":"San Luis, CO","COUNTRY":"USA","TYPE":"Town"}},{"type":"Feature","geometry":{"type":"Point","coordinates":[-105.93704223632812,37.17426939657152]},"properties":{"NAME":"Manassa, CO","COUNTRY":"USA","TYPE":"Town"}},{"type":"Feature","geometry":{"type":"Point","coordinates":[-109.54879760742188,38.576084772796115]},"properties":{"NAME":"Moab, UT","COUNTRY":"USA","TYPE":"Town"}},{"type":"Feature","geometry":{"type":"Point","coordinates":[-112.0880126953125,38.777640223073355]},"properties":{"NAME":"Richfield, UT","COUNTRY":"USA","TYPE":"Town"}},{"type":"Feature","geometry":{"type":"Point","coordinates":[-109.55978393554688,38.732661120482334]},"properties":{"NAME":"Arches National Park, UT","COUNTRY":"USA","TYPE":"National Park"}},{"type":"Feature","geometry":{"type":"Point","coordinates":[-112.9779052734375,37.32648861334206]},"properties":{"NAME":"Zion National Park, UT","COUNTRY":"USA","TYPE":"National Park"}},{"type":"Feature","geometry":{"type":"Point","coordinates":[-112.1868896484375,37.57233793321531]},"properties":{"NAME":"Bryce Canyon National Park, UT","COUNTRY":"USA","TYPE":"National Park"}},{"type":"Feature","geometry":{"type":"Point","coordinates":[-119.51202392578125,37.844494798834596]},"properties":{"NAME":"Yosemite National Park, CA","COUNTRY":"USA","TYPE":"National Park"}},{"type":"Feature","geometry":{"type":"Point","coordinates":[-118.39965820312499,37.36797435878155]},"properties":{"NAME":"Bishop, CA","COUNTRY":"USA","TYPE":"Town"}},{"type":"Feature","geometry":{"type":"Point","coordinates":[-118.06320190429688,36.60560647239554]},"properties":{"NAME":"Lone Pine, CA","COUNTRY":"USA","TYPE":"Town"}},{"type":"Feature","geometry":{"type":"Point","coordinates":[-118.564453125,36.50963615733049]},"properties":{"NAME":"Sequoia National Park, CA","COUNTRY":"USA","TYPE":"National Park"}},{"type":"Feature","geometry":{"type":"Point","coordinates":[-109.86053466796875,42.86690595775125]},"properties":{"NAME":"Pinedale, WY","COUNTRY":"USA","TYPE":"Town"}},{"type":"Feature","geometry":{"type":"Point","coordinates":[-110.64743041992188,43.81173831375078]},"properties":{"NAME":"Grand Teton National Park, WY","COUNTRY":"USA","TYPE":"National Park"}},{"type":"Feature","geometry":{"type":"Point","coordinates":[-110.54580688476562,44.62273154079542]},"properties":{"NAME":"Yellowstone National Park, WY","COUNTRY":"USA","TYPE":"National Park"}},{"type":"Feature","geometry":{"type":"Point","coordinates":[-104.71498489379883,44.59019212395425]},"properties":{"NAME":"Devils Tower, WY","COUNTRY":"USA","TYPE":"Natural Feature"}},{"type":"Feature","geometry":{"type":"Point","coordinates":[-107.78411865234375,39.53476241309834]},"properties":{"NAME":"Rifle, CO","COUNTRY":"USA","TYPE":"Town"}},{"type":"Feature","geometry":{"type":"Point","coordinates":[-107.75115966796875,38.586820096127674]},"properties":{"NAME":"Black Canyon of the Gunnison National Park","COUNTRY":"USA","TYPE":"National Park"}},{"type":"Feature","geometry":{"type":"Point","coordinates":[-149.87960815429688,61.210766463772416]},"properties":{"NAME":"Anchorage, AK","COUNTRY":"USA","TYPE":"City"}},{"type":"Feature","geometry":{"type":"Point","coordinates":[-151.54197692871094,59.64345821702033]},"properties":{"NAME":"Homer, AK","COUNTRY":"USA","TYPE":"Town"}},{"type":"Feature","geometry":{"type":"Point","coordinates":[-147.72422790527344,64.83813743550175]},"properties":{"NAME":"Fairbanks, AK","COUNTRY":"USA","TYPE":"City"}},{"type":"Feature","geometry":{"type":"Point","coordinates":[-151.05926513671875,60.48835098696415]},"properties":{"NAME":"Soldotna, AK","COUNTRY":"USA","TYPE":"Town"}},{"type":"Feature","geometry":{"type":"Point","coordinates":[-149.44358825683594,60.10387939460457]},"properties":{"NAME":"Seward, AK","COUNTRY":"USA","TYPE":"Town"}},{"type":"Feature","geometry":{"type":"Point","coordinates":[-149.71343994140622,60.15927629191336]},"properties":{"NAME":"Kenai Fjords National Park, AK","COUNTRY":"USA","TYPE":"National Park"}},{"type":"Feature","geometry":{"type":"Point","coordinates":[-149.44427490234375,61.5828781660651]},"properties":{"NAME":"Wasilla, AK","COUNTRY":"USA","TYPE":"Town"}},{"type":"Feature","geometry":{"type":"Point","coordinates":[-150.18138885498047,67.2533988343236]},"properties":{"NAME":"Coldfoot, AK","COUNTRY":"USA","TYPE":"Town"}},{"type":"Feature","geometry":{"type":"Point","coordinates":[-150.11014938354492,67.41012501871636]},"properties":{"NAME":"Wiseman, AK","COUNTRY":"USA","TYPE":"Town"}},{"type":"Feature","geometry":{"type":"Point","coordinates":[-151.7153549194336,68.14958763080575]},"properties":{"NAME":"Anaktuvuk Pass, AK","COUNTRY":"USA","TYPE":"Town"}},{"type":"Feature","geometry":{"type":"Point","coordinates":[-150.84228515625,67.93649205924049]},"properties":{"NAME":"Gates of the Arctic National Park, AK","COUNTRY":"USA","TYPE":"National Park"}},{"type":"Feature","geometry":{"type":"Point","coordinates":[-149.72253799438477,65.88152964619552]},"properties":{"NAME":"Yukon River Camp, AK","COUNTRY":"USA","TYPE":"Town"}},{"type":"Feature","geometry":{"type":"Point","coordinates":[-149.864501953125,63.43823016942227]},"properties":{"NAME":"Denali National Park and Preserve, AK","COUNTRY":"USA","TYPE":"National Park"}},{"type":"Feature","geometry":{"type":"Point","coordinates":[-149.01821136474607,63.87073523117587]},"properties":{"NAME":"Healy, AK","COUNTRY":"USA","TYPE":"Town"}},{"type":"Feature","geometry":{"type":"Point","coordinates":[-68.4228515625,44.54350521320822]},"properties":{"NAME":"Ellsworth, ME","COUNTRY":"USA","TYPE":"Town"}},{"type":"Feature","geometry":{"type":"Point","coordinates":[-69.77554321289062,44.31009208868226]},"properties":{"NAME":"Augusta, ME","COUNTRY":"USA","TYPE":"City"}},{"type":"Feature","geometry":{"type":"Point","coordinates":[19.94842529296875,50.06066538593667]},"properties":{"NAME":"Krakow, Poland","COUNTRY":"Poland","TYPE":"City"}},{"type":"Feature","geometry":{"type":"Point","coordinates":[35.473480224609375,31.53757858898719]},"properties":{"NAME":"Dead Sea, Israel","COUNTRY":"Israel","TYPE":"Natural Feature"}},{"type":"Feature","geometry":{"type":"Point","coordinates":[34.80194091796875,32.10584293285769]},"properties":{"NAME":"Tel Aviv, Israel","COUNTRY":"Israel","TYPE":"City"}},{"type":"Feature","geometry":{"type":"Point","coordinates":[34.991455078125,32.81844077366436]},"properties":{"NAME":"Haifa, Israel","COUNTRY":"Israel","TYPE":"City"}},{"type":"Feature","geometry":{"type":"Point","coordinates":[35.586090087890625,32.80574473290688]},"properties":{"NAME":"Sea of Galilee","COUNTRY":"Israel","TYPE":"Natural Feature"}},{"type":"Feature","geometry":{"type":"Point","coordinates":[35.716552734375,33.100745405144245]},"properties":{"NAME":"Golan heights, Israel","COUNTRY":"Israel","TYPE":"Natural Feature"}},{"type":"Feature","geometry":{"type":"Point","coordinates":[23.79638671875,44.315987905196906]},"properties":{"NAME":"Craiova, Romania","COUNTRY":"Romania","TYPE":"City"}},{"type":"Feature","geometry":{"type":"Point","coordinates":[23.57666015625,46.76996843356982]},"properties":{"NAME":"Cluj, Romania","COUNTRY":"Romania","TYPE":"City"}},{"type":"Feature","geometry":{"type":"Point","coordinates":[13.743896484375,51.04830113331224]},"properties":{"NAME":"Dresden, Germany","COUNTRY":"Germany","TYPE":"City"}},{"type":"Feature","geometry":{"type":"Point","coordinates":[24.78790283203125,46.22165245637913]},"properties":{"NAME":"Sighisoara, Romania","COUNTRY":"Romania","TYPE":"City"}},{"type":"Feature","geometry":{"type":"Point","coordinates":[-106.00090026855469,38.53635012572907]},"properties":{"NAME":"Salida, CO","COUNTRY":"USA","TYPE":"Town"}},{"type":"Feature","geometry":{"type":"Point","coordinates":[-104.776611328125,37.628371939835816]},"properties":{"NAME":"Walsenburg, CO","COUNTRY":"USA","TYPE":"Town"}},{"type":"Feature","geometry":{"type":"Point","coordinates":[-105.68315505981445,39.760915128186376]},"properties":{"NAME":"Empire, CO","COUNTRY":"USA","TYPE":"town"}},{"type":"Feature","geometry":{"type":"Point","coordinates":[-105.69972038269043,37.99508044703298]},"properties":{"NAME":"Crestone, CO","COUNTRY":"USA","TYPE":"Town"}},{"type":"Feature","geometry":{"type":"Point","coordinates":[-106.83174133300781,40.48455955508278]},"properties":{"NAME":"Steamboat Springs, CO","COUNTRY":"USA","TYPE":"Town"}},{"type":"Feature","geometry":{"type":"Point","coordinates":[-105.46669006347656,38.134556577054134]},"properties":{"NAME":"Westcliffe, CO","COUNTRY":"USA","TYPE":"Town"}},{"type":"Feature","geometry":{"type":"Point","coordinates":[-105.23014068603516,38.44068226417387]},"properties":{"NAME":"Canon City, CO","COUNTRY":"USA","TYPE":"Town"}},{"type":"Feature","geometry":{"type":"Point","coordinates":[-105.1336669921875,39.97764627359865]},"properties":{"NAME":"Louisville, CO","COUNTRY":"USA","TYPE":"Town"}},{"type":"Feature","geometry":{"type":"Point","coordinates":[-87.62695312499999,41.88285380945687]},"properties":{"NAME":"Chicago, IL","COUNTRY":"USA","TYPE":"City"}},{"type":"Feature","geometry":{"type":"Point","coordinates":[-109.22607421875,41.589769752047076]},"properties":{"NAME":"Rock Springs, WY","COUNTRY":"USA","TYPE":"Town"}},{"type":"Feature","geometry":{"type":"Point","coordinates":[-111.45835876464844,36.91366629380721]},"properties":{"NAME":"Page, AZ","COUNTRY":"USA","TYPE":"Town"}},{"type":"Feature","geometry":{"type":"Point","coordinates":[-111.31553649902344,37.0425724906182]},"properties":{"NAME":"Lake Powell, USA","COUNTRY":"USA","TYPE":"Natural Feature"}},{"type":"Feature","geometry":{"type":"Point","coordinates":[-70.75950622558594,43.071395809535375]},"properties":{"NAME":"Portsmouth, NH","COUNTRY":"USA","TYPE":"Town"}},{"type":"Feature","geometry":{"type":"Point","coordinates":[-71.52992248535156,43.20567631575423]},"properties":{"NAME":"Concord, NH","COUNTRY":"USA","TYPE":"City"}},{"type":"Feature","geometry":{"type":"Point","coordinates":[-71.98379516601562,43.413527474637455]},"properties":{"NAME":"New London, NH","COUNTRY":"USA","TYPE":"Town"}},{"type":"Feature","geometry":{"type":"Point","coordinates":[-72.25330352783203,43.64079600607349]},"properties":{"NAME":"Lebanon, NH","COUNTRY":"USA","TYPE":"Town"}},{"type":"Feature","geometry":{"type":"Point","coordinates":[-73.08792114257812,43.79860622522773]},"properties":{"NAME":"Brandon, VT","COUNTRY":"USA","TYPE":"Town"}},{"type":"Feature","geometry":{"type":"Point","coordinates":[-73.51089477539062,43.65694347778308]},"properties":{"NAME":"Lake George, USA","COUNTRY":"USA","TYPE":"Natural Feature"}},{"type":"Feature","geometry":{"type":"Point","coordinates":[-74.3613052368164,43.49726585310135]},"properties":{"NAME":"Speculator, NY","COUNTRY":"USA","TYPE":"Town"}},{"type":"Feature","geometry":{"type":"Point","coordinates":[-75.33462524414062,43.483815720045435]},"properties":{"NAME":"Boonville, NY","COUNTRY":"USA","TYPE":"Town"}},{"type":"Feature","geometry":{"type":"Point","coordinates":[-76.27944946289062,43.36412734793572]},"properties":{"NAME":"Palermo, NY","COUNTRY":"USA","TYPE":"Town"}},{"type":"Feature","geometry":{"type":"Point","coordinates":[-77.61016845703125,43.155105229057256]},"properties":{"NAME":"Rochester, NY","COUNTRY":"USA","TYPE":"City"}},{"type":"Feature","geometry":{"type":"Point","coordinates":[-78.87359619140625,42.88401467044253]},"properties":{"NAME":"Buffalo, NY","COUNTRY":"USA","TYPE":"City"}},{"type":"Feature","geometry":{"type":"Point","coordinates":[-79.07160758972168,43.08653589274977]},"properties":{"NAME":"Niagara Falls, USA","COUNTRY":"USA","TYPE":"Natural Feature"}},{"type":"Feature","geometry":{"type":"Point","coordinates":[-79.5794677734375,42.32098569864824]},"properties":{"NAME":"Westfield, NY","COUNTRY":"USA","TYPE":"Town"}},{"type":"Feature","geometry":{"type":"Point","coordinates":[-80.08758544921874,42.12267315117259]},"properties":{"NAME":"Erie, PA","COUNTRY":"USA","TYPE":"Town"}},{"type":"Feature","geometry":{"type":"Point","coordinates":[-80.77835083007812,41.86240192202145]},"properties":{"NAME":"Ashtabula, OH","COUNTRY":"USA","TYPE":"Town"}},{"type":"Feature","geometry":{"type":"Point","coordinates":[-81.68197631835938,41.50137811173191]},"properties":{"NAME":"Cleveland, OH","COUNTRY":"USA","TYPE":"City"}},{"type":"Feature","geometry":{"type":"Point","coordinates":[-82.02632904052734,41.506006251574036]},"properties":{"NAME":"Avon Lake, OH","COUNTRY":"USA","TYPE":"Town"}},{"type":"Feature","geometry":{"type":"Point","coordinates":[-83.65127563476562,41.37165592008984]},"properties":{"NAME":"Bowling Green, OH","COUNTRY":"USA","TYPE":"Town"}},{"type":"Feature","geometry":{"type":"Point","coordinates":[-83.74053955078125,42.26511445833756]},"properties":{"NAME":"Ann Arbor, MI","COUNTRY":"USA","TYPE":"Town"}},{"type":"Feature","geometry":{"type":"Point","coordinates":[-84.6551513671875,42.50754004948742]},"properties":{"NAME":"Eaton Rapids, MI","COUNTRY":"USA","TYPE":"Town"}},{"type":"Feature","geometry":{"type":"Point","coordinates":[-85.66177368164061,42.95742757637941]},"properties":{"NAME":"Grand Rapids, MI","COUNTRY":"USA","TYPE":"City"}},{"type":"Feature","geometry":{"type":"Point","coordinates":[-85.57525634765625,42.2905166207974]},"properties":{"NAME":"Kalamazoo, MI","COUNTRY":"USA","TYPE":"City"}},{"type":"Feature","geometry":{"type":"Point","coordinates":[-86.24954223632812,41.679066225164114]},"properties":{"NAME":"South Bend, IN","COUNTRY":"USA","TYPE":"Town"}},{"type":"Feature","geometry":{"type":"Point","coordinates":[-87.33444213867188,41.60209386160467]},"properties":{"NAME":"Gary, IN","COUNTRY":"USA","TYPE":"Town"}},{"type":"Feature","geometry":{"type":"Point","coordinates":[-88.04237365722656,42.34281279954019]},"properties":{"NAME":"Grayslake, IL","COUNTRY":"USA","TYPE":"Town"}},{"type":"Feature","geometry":{"type":"Point","coordinates":[-88.98788452148438,42.71170507522795]},"properties":{"NAME":"Janesville, WI","COUNTRY":"USA","TYPE":"Town"}},{"type":"Feature","geometry":{"type":"Point","coordinates":[-89.38201904296875,43.07089421067248]},"properties":{"NAME":"Madison, WI","COUNTRY":"USA","TYPE":"City"}},{"type":"Feature","geometry":{"type":"Point","coordinates":[-90.77316284179688,43.392075799933046]},"properties":{"NAME":"Soldiers Grove, WI","COUNTRY":"USA","TYPE":"Town"}},{"type":"Feature","geometry":{"type":"Point","coordinates":[-91.22085571289061,43.878097874251736]},"properties":{"NAME":"Onalaska, WI","COUNTRY":"USA","TYPE":"Town"}},{"type":"Feature","geometry":{"type":"Point","coordinates":[-92.14714050292969,44.44064372873941]},"properties":{"NAME":"Pepin, WI","COUNTRY":"USA","TYPE":"Town"}},{"type":"Feature","geometry":{"type":"Point","coordinates":[-93.09402465820312,44.950221181527546]},"properties":{"NAME":"Saint Paul, MN","COUNTRY":"USA","TYPE":"City"}},{"type":"Feature","geometry":{"type":"Point","coordinates":[-93.2574462890625,44.97451370563986]},"properties":{"NAME":"Minneapolis, MN","COUNTRY":"USA","TYPE":"City"}},{"type":"Feature","geometry":{"type":"Point","coordinates":[-93.39752197265625,45.65724779513408]},"properties":{"NAME":"Dalbo, MN","COUNTRY":"USA","TYPE":"Town"}},{"type":"Feature","geometry":{"type":"Point","coordinates":[-92.76100158691406,46.45394316729876]},"properties":{"NAME":"Moose Lake, MN","COUNTRY":"USA","TYPE":"Town"}},{"type":"Feature","geometry":{"type":"Point","coordinates":[-92.12379455566406,46.77231989968773]},"properties":{"NAME":"Duluth, MN","COUNTRY":"USA","TYPE":"City"}},{"type":"Feature","geometry":{"type":"Point","coordinates":[-93.52935791015625,47.238219359726784]},"properties":{"NAME":"Grand Rapids, MN","COUNTRY":"USA","TYPE":"Town"}},{"type":"Feature","geometry":{"type":"Point","coordinates":[-95.0701904296875,46.914627144654055]},"properties":{"NAME":"Park Rapids, MN","COUNTRY":"USA","TYPE":"Town"}},{"type":"Feature","geometry":{"type":"Point","coordinates":[-96.79504394531249,46.86770273172814]},"properties":{"NAME":"Fargo, ND","COUNTRY":"USA","TYPE":"City"}},{"type":"Feature","geometry":{"type":"Point","coordinates":[-97.05322265625,47.912660308427654]},"properties":{"NAME":"Grand Forks, ND","COUNTRY":"USA","TYPE":"City"}},{"type":"Feature","geometry":{"type":"Point","coordinates":[-98.87695312499999,48.111099041065366]},"properties":{"NAME":"Devils Lake, ND","COUNTRY":"USA","TYPE":"Town"}},{"type":"Feature","geometry":{"type":"Point","coordinates":[-99.99755859375,48.35989909002194]},"properties":{"NAME":"Rugy, ND","COUNTRY":"USA","TYPE":"Town"}},{"type":"Feature","geometry":{"type":"Point","coordinates":[-101.29669189453125,48.23016176791893]},"properties":{"NAME":"Minot, ND","COUNTRY":"USA","TYPE":"City"}},{"type":"Feature","geometry":{"type":"Point","coordinates":[-102.64869689941406,48.56229474861628]},"properties":{"NAME":"Powers Lake, ND","COUNTRY":"USA","TYPE":"Town"}},{"type":"Feature","geometry":{"type":"Point","coordinates":[-104.10438537597656,48.604198146191436]},"properties":{"NAME":"Brush Lake, MT","COUNTRY":"USA","TYPE":"Natural Feature"}},{"type":"Feature","geometry":{"type":"Point","coordinates":[-105.64453124999999,48.07807894349862]},"properties":{"NAME":"Wolf Point, MT","COUNTRY":"USA","TYPE":"Town"}},{"type":"Feature","geometry":{"type":"Point","coordinates":[-106.63055419921875,48.191725575618726]},"properties":{"NAME":"Glasgow, MT","COUNTRY":"USA","TYPE":"Town"}},{"type":"Feature","geometry":{"type":"Point","coordinates":[-107.8692626953125,48.35898659941894]},"properties":{"NAME":"Malta, MT","COUNTRY":"USA","TYPE":"Town"}},{"type":"Feature","geometry":{"type":"Point","coordinates":[-109.22882080078125,48.59114254808809]},"properties":{"NAME":"Chinook, MT","COUNTRY":"USA","TYPE":"Town"}},{"type":"Feature","geometry":{"type":"Point","coordinates":[-110.97015380859375,48.50932644976633]},"properties":{"NAME":"Chester, MT","COUNTRY":"USA","TYPE":"Town"}},{"type":"Feature","geometry":{"type":"Point","coordinates":[-112.33795166015625,48.63290858589532]},"properties":{"NAME":"Cut Bank, MT","COUNTRY":"USA","TYPE":"Town"}},{"type":"Feature","geometry":{"type":"Point","coordinates":[-113.44345092773438,48.75075629617738]},"properties":{"NAME":"St. Mary's, MT","COUNTRY":"USA","TYPE":"Town"}},{"type":"Feature","geometry":{"type":"Point","coordinates":[-114.33883666992188,48.40823770414505]},"properties":{"NAME":"Whitefish, MT","COUNTRY":"USA","TYPE":"City"}},{"type":"Feature","geometry":{"type":"Point","coordinates":[-115.04745483398436,48.88187650678903]},"properties":{"NAME":"Eureka, MT","COUNTRY":"USA","TYPE":"Town"}},{"type":"Feature","geometry":{"type":"Point","coordinates":[-115.5377197265625,48.381793961204984]},"properties":{"NAME":"Libby, MT","COUNTRY":"USA","TYPE":"Town"}},{"type":"Feature","geometry":{"type":"Point","coordinates":[-116.55670166015625,48.272225451004324]},"properties":{"NAME":"Sandpoint, ID","COUNTRY":"USA","TYPE":"Town"}},{"type":"Feature","geometry":{"type":"Point","coordinates":[-117.71026611328125,48.27039731468575]},"properties":{"NAME":"Chewelah, WA","COUNTRY":"USA","TYPE":"Town"}},{"type":"Feature","geometry":{"type":"Point","coordinates":[-118.15246582031249,47.65058757118734]},"properties":{"NAME":"Davenport, WA","COUNTRY":"USA","TYPE":"Town"}},{"type":"Feature","geometry":{"type":"Point","coordinates":[-119.29641723632812,47.611718174784954]},"properties":{"NAME":"Coulee City, WA","COUNTRY":"USA","TYPE":"Town"}},{"type":"Feature","geometry":{"type":"Point","coordinates":[-120.56241989135742,47.540498407123444]},"properties":{"NAME":"Dryden, WA","COUNTRY":"USA","TYPE":"Town"},"id":370},{"type":"Feature","geometry":{"type":"Point","coordinates":[-121.68663024902344,47.85003078545827]},"properties":{"NAME":"Gold Bar, WA","COUNTRY":"USA","TYPE":"Town"},"id":371},{"type":"Feature","geometry":{"type":"Point","coordinates":[-122.09140777587892,47.917262432162865]},"properties":{"NAME":"Snohomish, WA","COUNTRY":"USA","TYPE":"Town"},"id":372},{"type":"Feature","geometry":{"type":"Point","coordinates":[-122.45464324951172,48.94392574122787]},"properties":{"NAME":"Lynden, WA","COUNTRY":"USA","TYPE":"Town"}},{"type":"Feature","geometry":{"type":"Point","coordinates":[-123.1182861328125,49.27766072946757]},"properties":{"NAME":"Vancouver","COUNTRY":"Canada","TYPE":"City"}},{"type":"Feature","geometry":{"type":"Point","coordinates":[-105.57174682617188,36.40912593529671]},"properties":{"NAME":"Taos, NM","COUNTRY":"USA","TYPE":"Town"}},{"type":"Feature","geometry":{"type":"Point","coordinates":[-105.94528198242188,35.6907639509368]},"properties":{"NAME":"Santa Fe, NM","COUNTRY":"USA","TYPE":"City"}},{"type":"Feature","geometry":{"type":"Point","coordinates":[-104.44015502929688,36.901587303978474]},"properties":{"NAME":"Raton, NM","COUNTRY":"USA","TYPE":"Town"}},{"type":"Feature","geometry":{"type":"Point","coordinates":[-106.31332397460938,35.78551286273961]},"properties":{"NAME":"Bandelier National Monument, NM","COUNTRY":"USA","TYPE":"National Park"}},{"type":"Feature","geometry":{"type":"Point","coordinates":[-106.9855499267578,38.86991912631935]},"properties":{"NAME":"Crested Butte, CO","COUNTRY":"USA","TYPE":"Town"}},{"type":"Feature","geometry":{"type":"Point","coordinates":[-114.0655517578125,51.05002778118271]},"properties":{"NAME":"Calgary, Alberta","COUNTRY":"Canada","TYPE":"City"}},{"type":"Feature","geometry":{"type":"Point","coordinates":[-115.56793212890625,51.177621156752494]},"properties":{"NAME":"Banff, Alberta","COUNTRY":"Canada","TYPE":"Town"}},{"type":"Feature","geometry":{"type":"Point","coordinates":[-116.48941040039062,51.3959926039919]},"properties":{"NAME":"Field, British Columbia","COUNTRY":"Canada","TYPE":"Town"}},{"type":"Feature","geometry":{"type":"Point","coordinates":[-118.08792114257811,52.87161656679871]},"properties":{"NAME":"Jasper, Alberta","COUNTRY":"Canada","TYPE":"Town"}},{"type":"Feature","geometry":{"type":"Point","coordinates":[-116.180419921875,51.31859712057431]},"properties":{"NAME":"Banff National Park, Alberta","COUNTRY":"Canada","TYPE":"National Park"}},{"type":"Feature","geometry":{"type":"Point","coordinates":[-116.51824951171875,51.53096001302977]},"properties":{"NAME":"Yoho National Park, British Columbia","COUNTRY":"Canada","TYPE":"National Park"}},{"type":"Feature","geometry":{"type":"Point","coordinates":[-117.65258789062499,52.68970242806752]},"properties":{"NAME":"Jasper National Park, Alberta","COUNTRY":"Canada","TYPE":"National Park"}},{"type":"Feature","geometry":{"type":"Point","coordinates":[-107.75665283203124,38.15291731872143]},"properties":{"NAME":"Ridgway, CO","COUNTRY":"USA","TYPE":"Town"}},{"type":"Feature","geometry":{"type":"Point","coordinates":[-107.81158447265624,37.93986540897977]},"properties":{"NAME":"Telluride, CO","COUNTRY":"USA","TYPE":"Town"}},{"type":"Feature","geometry":{"type":"Point","coordinates":[-107.19017028808594,39.07144530820888]},"properties":{"NAME":"Marble, CO","COUNTRY":"USA","TYPE":"Town"}},{"type":"Feature","geometry":{"type":"Point","coordinates":[-102.30262756347656,40.58423507588185]},"properties":{"NAME":"Holyoke, CO","COUNTRY":"USA","TYPE":"Town"}},{"type":"Feature","geometry":{"type":"Point","coordinates":[-103.19732666015625,40.622291783092706]},"properties":{"NAME":"Sterling, CO","COUNTRY":"USA","TYPE":"Town"}},{"type":"Feature","geometry":{"type":"Point","coordinates":[-96.3720703125,33.99575015925125]},"properties":{"NAME":"Durant, OK","COUNTRY":"USA","TYPE":"Town"}},{"type":"Feature","geometry":{"type":"Point","coordinates":[-93.04046630859375,34.51560953848204]},"properties":{"NAME":"Hot Springs, AR","COUNTRY":"USA","TYPE":"Town"}},{"type":"Feature","geometry":{"type":"Point","coordinates":[-90.04394531249999,35.146862906756304]},"properties":{"NAME":"Memphis, TN","COUNTRY":"USA","TYPE":"City"}},{"type":"Feature","geometry":{"type":"Point","coordinates":[-86.77001953125,36.16005298551354]},"properties":{"NAME":"Nashville, TN","COUNTRY":"USA","TYPE":"City"}},{"type":"Feature","geometry":{"type":"Point","coordinates":[-83.51154327392578,35.713904233681035]},"properties":{"NAME":"Gatlinburg, TN","COUNTRY":"USA","TYPE":"Town"}},{"type":"Feature","geometry":{"type":"Point","coordinates":[-83.42056274414062,35.6126508187567]},"properties":{"NAME":"Great Smoky Mountains National Park, TN","COUNTRY":"USA","TYPE":"National Park"}},{"type":"Feature","geometry":{"type":"Point","coordinates":[-82.5457763671875,35.598135685537905]},"properties":{"NAME":"Asheville, NC","COUNTRY":"USA","TYPE":"City"}},{"type":"Feature","geometry":{"type":"Point","coordinates":[-84.385986328125,33.75174787568194]},"properties":{"NAME":"Atlanta, GA","COUNTRY":"USA","TYPE":"City"}},{"type":"Feature","geometry":{"type":"Point","coordinates":[-87.6870346069336,30.269890572572002]},"properties":{"NAME":"Gulf Shores, AL","COUNTRY":"USA","TYPE":"Town"}},{"type":"Feature","geometry":{"type":"Point","coordinates":[-88.5498046875,30.363396239603716]},"properties":{"NAME":"Pascagoula, MS","COUNTRY":"USA","TYPE":"Town"}},{"type":"Feature","geometry":{"type":"Point","coordinates":[-90.10986328125,29.969211659636663]},"properties":{"NAME":"New Orleans, LA","COUNTRY":"USA","TYPE":"City"}},{"type":"Feature","geometry":{"type":"Point","coordinates":[-95.38330078125,29.726222319395504]},"properties":{"NAME":"Houston, TX","COUNTRY":"USA","TYPE":"City"}},{"type":"Feature","geometry":{"type":"Point","coordinates":[-98.492431640625,29.430029404571762]},"properties":{"NAME":"San Antonio, TX","COUNTRY":"USA","TYPE":"City"}},{"type":"Feature","geometry":{"type":"Point","coordinates":[-97.734375,30.278044377800153]},"properties":{"NAME":"Austin, TX","COUNTRY":"USA","TYPE":"City"}},{"type":"Feature","geometry":{"type":"Point","coordinates":[-116.23603820800783,34.07086232376631]},"properties":{"NAME":"Joshua Tree National Park, CA","COUNTRY":"USA","TYPE":"National Park"}},{"type":"Feature","geometry":{"type":"Point","coordinates":[-111.96990966796875,41.21895280774118]},"properties":{"NAME":"Ogden, UT","COUNTRY":"USA","TYPE":"City"}},{"type":"Feature","geometry":{"type":"Point","coordinates":[-122.43713378906249,37.783740105227224]},"properties":{"NAME":"San Francisco, CA","COUNTRY":"USA","TYPE":"City"}},{"type":"Feature","geometry":{"type":"Point","coordinates":[-111.10954284667967,43.7229786663231]},"properties":{"NAME":"Driggs, ID","COUNTRY":"USA","TYPE":"Town"}},{"type":"Feature","geometry":{"type":"Point","coordinates":[-111.1105728149414,43.603018819924465]},"properties":{"NAME":"Victor, ID","COUNTRY":"USA","TYPE":"Town"}},{"type":"Feature","geometry":{"type":"Point","coordinates":[-108.73306274414062,42.82864580245114]},"properties":{"NAME":"Lander, WY","COUNTRY":"USA","TYPE":"Town"}},{"type":"Feature","geometry":{"type":"Point","coordinates":[-121.31103515625,44.050089820756796]},"properties":{"NAME":"Bend, OR","COUNTRY":"USA","TYPE":"City"}},{"type":"Feature","geometry":{"type":"Point","coordinates":[-122.11303710937499,42.94637095514085]},"properties":{"NAME":"Crater Lake National Park","COUNTRY":"USA","TYPE":"National Park"}},{"type":"Feature","geometry":{"type":"Point","coordinates":[-121.55136108398436,44.29190959243455]},"properties":{"NAME":"Sisters, OR","COUNTRY":"USA","TYPE":"Town"}},{"type":"Feature","geometry":{"type":"Point","coordinates":[-113.00262451171875,37.18657859524883]},"properties":{"NAME":"Springdale, UT","COUNTRY":"USA","TYPE":"Town"}},{"type":"Feature","geometry":{"type":"Point","coordinates":[-112.83714294433594,37.636528711170996]},"properties":{"NAME":"Cedar Breaks National Monument","COUNTRY":"USA","TYPE":"National Monument"}},{"type":"Feature","geometry":{"type":"Point","coordinates":[-112.5281524658203,37.045312802603355]},"properties":{"NAME":"Kanab, UT","COUNTRY":"USA","TYPE":"Town"}},{"type":"Feature","geometry":{"type":"Point","coordinates":[-113.27213287353516,37.20367137669756]},"properties":{"NAME":"La Verkin, UT","COUNTRY":"USA","TYPE":"Town"}},{"type":"Feature","geometry":{"type":"Point","coordinates":[-106.5838623046875,35.12440157992044]},"properties":{"NAME":"Albequerque, NM","COUNTRY":"USA","TYPE":"City"}},{"type":"Feature","geometry":{"type":"Point","coordinates":[-106.31607055664062,35.88014896488361]},"properties":{"NAME":"Los Alamos, NM","COUNTRY":"USA","TYPE":"Town"}},{"type":"Feature","geometry":{"type":"Point","coordinates":[-105.2874755859375,36.39226944709636]},"properties":{"NAME":"Angel Fire, NM","COUNTRY":"USA","TYPE":"Town"}},{"type":"Feature","geometry":{"type":"Point","coordinates":[-105.59234619140625,41.31288691435732]},"properties":{"NAME":"Laramie, WY","COUNTRY":"USA","TYPE":"Town"}},{"type":"Feature","geometry":{"type":"Point","coordinates":[-107.2430419921875,41.77950486590359]},"properties":{"NAME":"Rawlins, WY","COUNTRY":"USA","TYPE":"Town"}},{"type":"Feature","geometry":{"type":"Point","coordinates":[-109.061279296875,44.512176171071054]},"properties":{"NAME":"Cody, WY","COUNTRY":"USA","TYPE":"Town"}},{"type":"Feature","geometry":{"type":"Point","coordinates":[-103.59695434570312,43.765143524274066]},"properties":{"NAME":"Custer, SD","COUNTRY":"USA","TYPE":"Town"}},{"type":"Feature","geometry":{"type":"Point","coordinates":[-103.46983909606934,43.5785255340113]},"properties":{"NAME":"Wind Cave National Park, SD","COUNTRY":"USA","TYPE":"National Park"}},{"type":"Feature","geometry":{"type":"Point","coordinates":[-103.40606689453124,46.181732100439916]},"properties":{"NAME":"Bowman, ND","COUNTRY":"USA","TYPE":"Town"}},{"type":"Feature","geometry":{"type":"Point","coordinates":[-103.52279663085936,46.912750956378915]},"properties":{"NAME":"Medora, ND","COUNTRY":"USA","TYPE":"Town"}},{"type":"Feature","geometry":{"type":"Point","coordinates":[-103.48091125488281,46.95541798941581]},"properties":{"NAME":"Theodore Roosevelt National Park, ND","COUNTRY":"USA","TYPE":"National Park"}},{"type":"Feature","geometry":{"type":"Point","coordinates":[-104.842529296875,41.13315883477399]},"properties":{"NAME":"Cheyenne, WY","COUNTRY":"USA","TYPE":"City"}},{"type":"Feature","geometry":{"type":"Point","coordinates":[-112.43888854980469,42.867912483915305]},"properties":{"NAME":"Pocatello, ID","COUNTRY":"USA","TYPE":"Town"}},{"type":"Feature","geometry":{"type":"Point","coordinates":[-109.33868408203125,37.87485339352928]},"properties":{"NAME":"Monticello, UT","COUNTRY":"USA","TYPE":"Town"}},{"type":"Feature","geometry":{"type":"Point","coordinates":[-118.19366455078125,50.99690391248284]},"properties":{"NAME":"Revelstoke, BC","COUNTRY":"Canada","TYPE":"Town"}},{"type":"Feature","geometry":{"type":"Point","coordinates":[-116.96353912353516,51.296061416993226]},"properties":{"NAME":"Golden, BC","COUNTRY":"Canada","TYPE":"Town"}},{"type":"Feature","geometry":{"type":"Point","coordinates":[-111.49749755859375,40.64521960545374]},"properties":{"NAME":"Park City, UT","COUNTRY":"USA","TYPE":"Town"}},{"type":"Feature","geometry":{"type":"Point","coordinates":[-104.53216552734375,40.107487419012415]},"properties":{"NAME":"Keenesburg, CO","COUNTRY":"USA","TYPE":"Town"}},{"type":"Feature","geometry":{"type":"Point","coordinates":[-104.56169128417969,40.38578183826235]},"properties":{"NAME":"Kersey, CO","COUNTRY":"USA","TYPE":"Town"}},{"type":"Feature","geometry":{"type":"Point","coordinates":[-103.62236022949219,40.25752074821524]},"properties":{"NAME":"Brush, CO","COUNTRY":"USA","TYPE":"Town"}},{"type":"Feature","geometry":{"type":"Point","coordinates":[-104.86038208007812,39.3746488816007]},"properties":{"NAME":"Castle Rock, CO","COUNTRY":"USA","TYPE":"Town"}},{"type":"Feature","geometry":{"type":"Point","coordinates":[-109.87289428710938,38.39764411353178]},"properties":{"NAME":"Canyonlands National Park, UT","COUNTRY":"USA","TYPE":"National Park"}},{"type":"Feature","geometry":{"type":"Point","coordinates":[-108.45565795898438,37.24618142270163]},"properties":{"NAME":"Mesa Verde National Park, CO","COUNTRY":"USA","TYPE":"National Park"}},{"type":"Feature","geometry":{"type":"Point","coordinates":[-105.5072021484375,40.07360538883327]},"properties":{"NAME":"Ward, CO","COUNTRY":"USA","TYPE":"Town"}},{"type":"Feature","geometry":{"type":"Point","coordinates":[-124.03495788574219,41.276258366085166]},"properties":{"NAME":"Redwood National Park, CA","COUNTRY":"USA","TYPE":"National Park"}},{"type":"Feature","geometry":{"type":"Point","coordinates":[-118.60565185546874,36.90817608096904]},"properties":{"NAME":"Kings Canyon National Park, CA","COUNTRY":"USA","TYPE":"National Park"}},{"type":"Feature","geometry":{"type":"Point","coordinates":[-117.12524414062501,36.61332303966068]},"properties":{"NAME":"Death Valley National Park, CA","COUNTRY":"USA","TYPE":"National Park"}},{"type":"Feature","geometry":{"type":"Point","coordinates":[-86.1273193359375,37.19533058280065]},"properties":{"NAME":"Mammoth Cave National Park","COUNTRY":"USA","TYPE":"National Park"},"id":446},{"type":"Feature","geometry":{"type":"Point","coordinates":[-93.0318832397461,34.529752751979814]},"properties":{"NAME":"Hot Springs National Park, AR","COUNTRY":"USA","TYPE":"National Park"}},{"type":"Feature","geometry":{"type":"Point","coordinates":[-86.74534320831299,41.796016075711265]},"properties":{"NAME":"New Buffalo, MI","COUNTRY":"USA","TYPE":"Town"}},{"type":"Feature","geometry":{"type":"Point","coordinates":[-86.48059844970702,42.108411365705855]},"properties":{"NAME":"St. Joseph, MI","COUNTRY":"USA","TYPE":"Town"}},{"type":"Feature","geometry":{"type":"Point","coordinates":[-87.75355339050292,41.710442136239614]},"properties":{"NAME":"Oak Lawn, IL","COUNTRY":"USA","TYPE":"City"}},{"type":"Feature","geometry":{"type":"Point","coordinates":[-86.10946655273438,42.788346354315784]},"properties":{"NAME":"Holland, MI","COUNTRY":"USA","TYPE":"Town"}},{"type":"Feature","geometry":{"type":"Point","coordinates":[-85.86579322814941,42.8695480539276]},"properties":{"NAME":"Hudsonville, MI","COUNTRY":"USA","TYPE":"Town"}},{"type":"Feature","geometry":{"type":"Point","coordinates":[-86.22842788696289,43.062868070571454]},"properties":{"NAME":"Grand Haven, MI","COUNTRY":"USA","TYPE":"Town"}},{"type":"Feature","geometry":{"type":"Point","coordinates":[-156.46796834092987,20.88586927503726]},"properties":{"NAME":"Kahului, HI","COUNTRY":"USA","TYPE":"City"}},{"type":"Feature","geometry":{"type":"Point","coordinates":[-156.6796614624846,20.876420747196928]},"properties":{"NAME":"Lahaina, HI","COUNTRY":"USA","TYPE":"Town"}},{"type":"Feature","geometry":{"type":"Point","coordinates":[-155.98692046356086,20.756320881925845]},"properties":{"NAME":"Hana, HI","COUNTRY":"USA","TYPE":"Town"}},{"type":"Feature","geometry":{"type":"Point","coordinates":[-156.23239292444754,20.751660366217852]},"properties":{"NAME":"Haleakala National Park, HI","COUNTRY":"USA","TYPE":"National Park"}},{"type":"Feature","geometry":{"type":"Point","coordinates":[-156.494565136583,20.63131649707206]},"properties":{"NAME":"Molokini Crater, HI","COUNTRY":"USA","TYPE":"Natural Feature"}},{"type":"Feature","geometry":{"type":"Point","coordinates":[-86.88438103377972,40.41831078890234]},"properties":{"NAME":"Lafayette, IN","COUNTRY":"USA","TYPE":"Town"}},{"type":"Feature","geometry":{"type":"Point","coordinates":[-88.10690267883633,41.86621640393905]},"properties":{"NAME":"Wheaton, IL","COUNTRY":"USA","TYPE":"Town"}},{"type":"Feature","geometry":{"type":"Point","coordinates":[-87.85333048815876,41.63025805759076]},"properties":{"NAME":"Orland Park, IL","COUNTRY":"USA","TYPE":"Town"}},{"type":"Feature","geometry":{"type":"Point","coordinates":[-87.83025236519845,41.667397023679214]},"properties":{"NAME":"Palos Park, IL","COUNTRY":"USA","TYPE":"Town"}},{"type":"Feature","geometry":{"type":"Point","coordinates":[-87.73702286184883,41.63056372809355]},"properties":{"NAME":"Midlothian, IL","COUNTRY":"USA","TYPE":"Town"}},{"type":"Feature","geometry":{"type":"Point","coordinates":[-87.70217642453127,41.720278020661134]},"properties":{"NAME":"Evergreen Park, IL","COUNTRY":"USA","TYPE":"Town"}},{"type":"Feature","geometry":{"type":"Point","coordinates":[-87.78478398839474,41.88468630351037]},"properties":{"NAME":"Oak Park, IL","COUNTRY":"USA","TYPE":"Town"}},{"type":"Feature","geometry":{"type":"Point","coordinates":[-87.79255113324513,41.572753317136225]},"properties":{"NAME":"Tinley Park, IL","COUNTRY":"USA","TYPE":"Town"}},{"type":"Feature","geometry":{"type":"Point","coordinates":[-86.53312683105469,39.16746836684494]},"properties":{"NAME":"Bloomington, IN","COUNTRY":"USA","TYPE":"City"}},{"type":"Feature","geometry":{"type":"Point","coordinates":[-87.33478546142578,41.48350524528683]},"properties":{"NAME":"Merrillville, IN","COUNTRY":"USA","TYPE":"Town"}},{"type":"Feature","geometry":{"type":"Point","coordinates":[-89.7747802734375,43.626011053318955]},"properties":{"NAME":"Wisconsin Dells, WI","COUNTRY":"USA","TYPE":"Town"}},{"type":"Feature","geometry":{"type":"Point","coordinates":[-87.91431427001953,43.03627397550502]},"properties":{"NAME":"Milwaukee, WI","COUNTRY":"USA","TYPE":"City"}},{"type":"Feature","geometry":{"type":"Point","coordinates":[-87.73406982421875,43.85099346531637]},"properties":{"NAME":"Whistling Straits","COUNTRY":"USA","TYPE":"Golf Course"}},{"type":"Feature","geometry":{"type":"Point","coordinates":[-95.94017028808594,41.2602591693733]},"properties":{"NAME":"Omaha, NE","COUNTRY":"USA","TYPE":"City"}},{"type":"Feature","geometry":{"type":"Point","coordinates":[-89.09294128417967,42.27273618224211]},"properties":{"NAME":"Rockford, IL","COUNTRY":"USA","TYPE":"City"}},{"type":"Feature","geometry":{"type":"Point","coordinates":[-87.0553207397461,41.4689718711182]},"properties":{"NAME":"Valparaiso, IN","COUNTRY":"USA","TYPE":"Town"}},{"type":"Feature","geometry":{"type":"Point","coordinates":[-71.06025695800781,42.355499492256534]},"properties":{"NAME":"Boston, MA","COUNTRY":"USA","TYPE":"City"}},{"type":"Feature","geometry":{"type":"Point","coordinates":[-71.1086654663086,42.37217859566015]},"properties":{"NAME":"Cambridge, MA","COUNTRY":"USA","TYPE":"City"}},{"type":"Feature","geometry":{"type":"Point","coordinates":[-113.57940673828125,37.10338413422305]},"properties":{"NAME":"St. George, UT","COUNTRY":"USA","TYPE":"City"}},{"type":"Feature","geometry":{"type":"Point","coordinates":[-111.23245239257812,38.28454701883166]},"properties":{"NAME":"Capital Reef National Park","COUNTRY":"USA","TYPE":"National Park"}},{"type":"Feature","geometry":{"type":"Point","coordinates":[-87.98675537109375,41.42380760069898]},"properties":{"NAME":"Manhattan, IL","COUNTRY":"USA","TYPE":"Town"}},{"type":"Feature","geometry":{"type":"Point","coordinates":[-87.99911499023438,41.673424709209556]},"properties":{"NAME":"Lemont, IL","COUNTRY":"USA","TYPE":"Town"}},{"type":"Feature","geometry":{"type":"Point","coordinates":[-88.08151245117188,41.52605770161481]},"properties":{"NAME":"Joliet, IL","COUNTRY":"USA","TYPE":"City"}},{"type":"Feature","geometry":{"type":"Point","coordinates":[-88.14828872680664,41.77284798188914]},"properties":{"NAME":"Naperville, IL","COUNTRY":"USA","TYPE":"City"}},{"type":"Feature","geometry":{"type":"Point","coordinates":[-117.28179931640626,33.02032293345423]},"properties":{"NAME":"Cardiff-by-the-Sea","COUNTRY":"USA","TYPE":"Town"}},{"type":"Feature","geometry":{"type":"Point","coordinates":[-89.92627143859863,40.92204140106897]},"properties":{"NAME":"Laura, IL","COUNTRY":"USA","TYPE":"Town"}},{"type":"Feature","geometry":{"type":"Point","coordinates":[-87.84805297851562,41.4959781971696]},"properties":{"NAME":"Frankfort, IL","COUNTRY":"USA","TYPE":"Town"}},{"type":"Feature","geometry":{"type":"Point","coordinates":[-86.23271942138672,44.63372665816933]},"properties":{"NAME":"Frankfort, MI","COUNTRY":"USA","TYPE":"Town"}},{"type":"Feature","geometry":{"type":"Point","coordinates":[-85.61748504638672,44.76038647589176]},"properties":{"NAME":"Traverse City, MI","COUNTRY":"USA","TYPE":"City"}},{"type":"Feature","geometry":{"type":"Point","coordinates":[-86.05968475341795,44.81180094373175]},"properties":{"NAME":"Empire, MI","COUNTRY":"USA","TYPE":"Town"}},{"type":"Feature","geometry":{"type":"Point","coordinates":[-85.99067687988281,44.89771422497743]},"properties":{"NAME":"Glen Arbor, MI","COUNTRY":"USA","TYPE":"Town"}},{"type":"Feature","geometry":{"type":"Point","coordinates":[-85.76133728027344,45.02258255721372]},"properties":{"NAME":"Leland, MI","COUNTRY":"USA","TYPE":"Town"}},{"type":"Feature","geometry":{"type":"Point","coordinates":[-85.6497573852539,44.977670978257756]},"properties":{"NAME":"Suttons Bay, MI","COUNTRY":"USA","TYPE":"Town"}},{"type":"Feature","geometry":{"type":"Point","coordinates":[-86.06002807617186,44.888715163384624]},"properties":{"NAME":"Sleeping Bear Dunes National Lakeshore","COUNTRY":"USA","TYPE":"National Park"}},{"type":"Feature","geometry":{"type":"Point","coordinates":[-85.48642158508301,44.96206507199539]},"properties":{"NAME":"Old Mission, MI","COUNTRY":"USA","TYPE":"Town"}},{"type":"Feature","geometry":{"type":"Point","coordinates":[-87.60841369628906,41.69424137148854]},"properties":{"NAME":"Pullman National Monument","COUNTRY":"USA","TYPE":"National Monument"}},{"type":"Feature","geometry":{"type":"Point","coordinates":[-87.93079376220702,42.138841114161224]},"properties":{"NAME":"Wheeling, IL","COUNTRY":"USA","TYPE":"Town"}},{"type":"Feature","geometry":{"type":"Point","coordinates":[-87.6877212524414,42.04495849733381]},"properties":{"NAME":"Evanston, IL","COUNTRY":"USA","TYPE":"City"}},{"type":"Feature","geometry":{"type":"Point","coordinates":[-87.79818534851074,42.18388593474191]},"properties":{"NAME":"Highland Park, IL","COUNTRY":"USA","TYPE":"Town"}},{"type":"Feature","geometry":{"type":"Point","coordinates":[-87.84685134887695,42.3637444694139]},"properties":{"NAME":"Waukegan, IL","COUNTRY":"USA","TYPE":"City"}},{"type":"Feature","geometry":{"type":"Point","coordinates":[-87.82230377197266,42.58418035503378]},"properties":{"NAME":"Kenosha, IL","COUNTRY":"USA","TYPE":"Town"}},{"type":"Feature","geometry":{"type":"Point","coordinates":[-87.48627510458977,36.86512097047958]},"properties":{"NAME":"Hopkinsville, KY","COUNTRY":"USA","TYPE":"City"}},{"type":"Feature","geometry":{"type":"Point","coordinates":[-85.7892356057998,42.908993000413346]},"properties":{"NAME":"Jenison, MI","COUNTRY":"USA","TYPE":"Town"}},{"type":"Feature","geometry":{"type":"Point","coordinates":[-86.02601332438951,42.81317172708208]},"properties":{"NAME":"Zeeland, MI","COUNTRY":"USA","TYPE":"Town"}},{"type":"Feature","geometry":{"type":"Point","coordinates":[-86.20276155414454,42.65675273140022]},"properties":{"NAME":"Saugatuck, MI","COUNTRY":"USA","TYPE":"Town"}},{"type":"Feature","geometry":{"type":"Point","coordinates":[-86.44820360439286,43.95762589341274]},"properties":{"NAME":"Ludington, MI","COUNTRY":"USA","TYPE":"Town"}},{"type":"Feature","geometry":{"type":"Point","coordinates":[-85.84467202073827,44.723801145061515]},"properties":{"NAME":"Lake Ann, MI","COUNTRY":"USA","TYPE":"Town"}},{"type":"Feature","geometry":{"type":"Point","coordinates":[-122.33175625219357,47.60384498619047]},"properties":{"NAME":"Seattle, WA","COUNTRY":"USA","TYPE":"City"}},{"type":"Feature","geometry":{"type":"Point","coordinates":[-122.33459752728393,48.475547402290715]},"properties":{"NAME":"Burlington, WA","COUNTRY":"USA","TYPE":"City"}},{"type":"Feature","geometry":{"type":"Point","coordinates":[-122.33276979493104,48.42075007861641]},"properties":{"NAME":"Mt. Vernon, WA","COUNTRY":"USA","TYPE":"City"}},{"type":"Feature","geometry":{"type":"Point","coordinates":[-122.61606830956879,48.51563804048874]},"properties":{"NAME":"Anacortes, WA","COUNTRY":"USA","TYPE":"City"}},{"type":"Feature","geometry":{"type":"Point","coordinates":[-122.34282408783774,48.341428192095975]},"properties":{"NAME":"Conway, WA","COUNTRY":"USA","TYPE":"Town"}},{"type":"Feature","geometry":{"type":"Point","coordinates":[-122.48851082679528,48.77837117335724]},"properties":{"NAME":"Bellingham, WA","COUNTRY":"USA","TYPE":"City"}},{"type":"Feature","geometry":{"type":"Point","coordinates":[-116.54677670119308,33.823094500181675]},"properties":{"NAME":"Palm Springs, CA","COUNTRY":"USA","TYPE":"City"}},{"type":"Feature","geometry":{"type":"Point","coordinates":[-122.4073088793793,48.039856696904266]},"properties":{"NAME":"Langley, WA","COUNTRY":"USA","TYPE":"Town"}},{"type":"Feature","geometry":{"type":"Point","coordinates":[-122.49762383584694,48.38895965131153]},"properties":{"NAME":"La Conner, WA","COUNTRY":"USA","TYPE":"Town"}},{"type":"Feature","geometry":{"type":"Point","coordinates":[-122.22595746208916,48.50922405865909]},"properties":{"NAME":"Sedro-Wooley, WA","COUNTRY":"USA","TYPE":"Town"}},{"type":"Feature","geometry":{"type":"Point","coordinates":[-121.07688790225706,48.71982953564474]},"properties":{"NAME":"North Cascades National Park","COUNTRY":"USA","TYPE":"National Park"}},{"type":"Feature","geometry":{"type":"Point","coordinates":[-122.5219299674009,47.62541684200767]},"properties":{"NAME":"Windslow, WA","COUNTRY":"USA","TYPE":"Town"}},{"type":"Feature","geometry":{"type":"Point","coordinates":[-122.20331609382421,47.47907115220306]},"properties":{"NAME":"Renton, WA","COUNTRY":"USA","TYPE":"Town"}},{"type":"Feature","geometry":{"type":"Point","coordinates":[-82.45736429227124,27.953740209029917]},"properties":{"NAME":"Tampa Bay, FL","COUNTRY":"USA","TYPE":"City"}},{"type":"Feature","properties":{"NAME":"Galena, IL","COUNTRY":"USA","TYPE":"Town"},"geometry":{"type":"Point","coordinates":[-90.4291164,42.4157905]}},{"type":"Feature","properties":{"NAME":"St. Helena, CA","COUNTRY":"USA","TYPE":"Town"},"geometry":{"type":"Point","coordinates":[-122.4723268,38.5064051]}},{"type":"Feature","properties":{"NAME":"Muir Woods National Monument","COUNTRY":"USA","TYPE":"National Monument"},"geometry":{"type":"Point","coordinates":[-122.5827046,37.897287]}},{"type":"Feature","properties":{"NAME":"Sonoma, CA","COUNTRY":"USA","TYPE":"City"},"geometry":{"type":"Point","coordinates":[-122.4609054,38.2945796]}},{"type":"Feature","properties":{"NAME":"Napa, CA","COUNTRY":"USA","TYPE":"City"},"geometry":{"type":"Point","coordinates":[-122.2893335,38.2985398]}}]}